{"type":"FeatureCollection","bbox":[0.358287,42.796252,0.410893,42.904081],"features":[{"bbox":[0.358287,42.796252,0.410893,42.904081],"type":"Feature","properties":{"segments":[{"distance":14417.3,"duration":1015.7,"steps":[{"distance":19.2,"duration":4.6,"type":11,"instruction":"Head south on Quai de la Neste, D 19","name":"Quai de la Neste, D 19","way_points":[0,1]},{"distance":29.7,"duration":7.1,"type":0,"instruction":"Turn left onto Place du Foirail, D 219","name":"Place du Foirail, D 219","way_points":[1,3]},{"distance":696.5,"duration":64.9,"type":1,"instruction":"Turn right onto Place du Foirail, D 219","name":"Place du Foirail, D 219","way_points":[3,26]},{"distance":31.7,"duration":7.6,"type":0,"instruction":"Turn left","name":"-","way_points":[26,29]},{"distance":8053.0,"duration":488.3,"type":2,"instruction":"Turn sharp left onto D 919","name":"D 919","way_points":[29,236]},{"distance":4313.9,"duration":349.6,"type":7,"instruction":"Enter the roundabout and take the 1st exit onto Route du Louron, D 25","name":"Route du Louron, D 25","exit_number":1,"way_points":[236,339]},{"distance":1273.3,"duration":93.6,"type":0,"instruction":"Turn left onto Route de Loudenvielle, D 25","name":"Route de Loudenvielle, D 25","way_points":[339,364]},{"distance":0.0,"duration":0.0,"type":10,"instruction":"Arrive at Route de Loudenvielle, D 25, on the left","name":"-","way_points":[364,364]}]},{"distance":812.0,"duration":73.5,"steps":[{"distance":812.0,"duration":73.5,"type":11,"instruction":"Head south on Route de Loudenvielle, D 25","name":"Route de Loudenvielle, D 25","way_points":[364,394]},{"distance":0.0,"duration":0.0,"type":10,"instruction":"Arrive at Route de Loudenvielle, D 25, straight ahead","name":"-","way_points":[394,394]}]}],"way_points":[0,364,394],"summary":{"distance":15229.3,"duration":1089.2},"name":"Navette Loudenvielle - Arreau"},"geometry":{"coordinates":[[0.358291,42.904081],[0.358287,42.90391],[0.358601,42.903891],[0.358641,42.90387],[0.35863,42.903815],[0.358428,42.903621],[0.358385,42.903565],[0.358377,42.903518],[0.358387,42.903467],[0.358454,42.903352],[0.358495,42.903285],[0.358538,42.903076],[0.35854,42.902819],[0.358583,42.902347],[0.358639,42.90189],[0.358702,42.901601],[0.359068,42.900934],[0.359216,42.900728],[0.359573,42.900238],[0.359634,42.900187],[0.359754,42.900036],[0.359797,42.899888],[0.359788,42.899429],[0.359688,42.898824],[0.359644,42.898649],[0.359358,42.898147],[0.359275,42.897937],[0.359353,42.89791],[0.35942,42.897834],[0.359426,42.897703],[0.360097,42.897948],[0.360997,42.898378],[0.36122,42.898458],[0.361779,42.898565],[0.36389,42.898852],[0.364309,42.898872],[0.364454,42.89886],[0.364649,42.898819],[0.365035,42.898674],[0.365621,42.898373],[0.366352,42.89807],[0.366515,42.897986],[0.367293,42.897474],[0.367962,42.897126],[0.368272,42.897012],[0.368588,42.896931],[0.369696,42.896853],[0.369914,42.896781],[0.370014,42.896688],[0.370075,42.896574],[0.370215,42.896183],[0.370358,42.89593],[0.370531,42.895634],[0.370722,42.895217],[0.370998,42.894863],[0.37118,42.894278],[0.371266,42.894101],[0.371416,42.893917],[0.371526,42.893691],[0.371999,42.89303],[0.372547,42.892408],[0.372908,42.892041],[0.373209,42.8918],[0.373398,42.891606],[0.3737,42.891314],[0.373988,42.89111],[0.374611,42.89073],[0.374827,42.890624],[0.37504,42.890541],[0.375663,42.890328],[0.37617,42.890057],[0.376482,42.889861],[0.376746,42.889626],[0.37685,42.88954],[0.376974,42.889476],[0.377107,42.889461],[0.377252,42.889482],[0.37743,42.889536],[0.377581,42.889625],[0.37808,42.89001],[0.378274,42.890081],[0.378643,42.890121],[0.3788,42.890112],[0.378966,42.890058],[0.3791,42.889951],[0.379366,42.889615],[0.379948,42.88861],[0.380194,42.887991],[0.380312,42.887873],[0.380452,42.8878],[0.380661,42.887738],[0.380928,42.887691],[0.381807,42.887591],[0.382055,42.887519],[0.382168,42.887449],[0.382313,42.887342],[0.382575,42.887107],[0.38285,42.886952],[0.383571,42.886576],[0.384615,42.886195],[0.384782,42.886124],[0.384975,42.88601],[0.385209,42.885797],[0.38542,42.885491],[0.385774,42.884878],[0.386064,42.884322],[0.386172,42.884164],[0.386334,42.884019],[0.386932,42.883553],[0.387374,42.883233],[0.387572,42.883071],[0.387732,42.882915],[0.387931,42.882533],[0.388521,42.881656],[0.388647,42.881417],[0.388757,42.881149],[0.388843,42.880844],[0.388981,42.880101],[0.389055,42.879891],[0.389125,42.879718],[0.389551,42.878884],[0.389619,42.87872],[0.389647,42.87847],[0.389555,42.878011],[0.389597,42.877915],[0.389665,42.877853],[0.389784,42.87778],[0.390644,42.877371],[0.390815,42.877249],[0.390918,42.877113],[0.390961,42.876963],[0.390985,42.876651],[0.391007,42.876605],[0.391038,42.876542],[0.391166,42.876409],[0.391342,42.876271],[0.391547,42.876139],[0.391684,42.876019],[0.391925,42.875767],[0.392317,42.875317],[0.392451,42.875122],[0.392561,42.874932],[0.392715,42.874591],[0.39293,42.874217],[0.393018,42.873999],[0.393193,42.873417],[0.39364,42.871959],[0.393663,42.871904],[0.393751,42.8717],[0.39387,42.87159],[0.393991,42.871514],[0.394608,42.87127],[0.395669,42.87088],[0.396023,42.870749],[0.396282,42.870594],[0.39639,42.870488],[0.396476,42.870372],[0.396517,42.870244],[0.396536,42.870111],[0.396529,42.869279],[0.396474,42.86876],[0.396501,42.868439],[0.396645,42.868168],[0.396854,42.867901],[0.397074,42.867721],[0.397373,42.867591],[0.397851,42.867503],[0.398669,42.867424],[0.398861,42.867368],[0.399067,42.867231],[0.399582,42.866722],[0.399974,42.866262],[0.400116,42.866134],[0.400995,42.865495],[0.401159,42.865316],[0.401246,42.865123],[0.40125,42.864245],[0.401312,42.863808],[0.401321,42.863625],[0.401301,42.863411],[0.401189,42.862926],[0.401187,42.862274],[0.40127,42.862039],[0.401339,42.86192],[0.401435,42.861791],[0.401702,42.861556],[0.40204,42.861328],[0.402552,42.86103],[0.402661,42.860912],[0.402749,42.860765],[0.40291,42.860055],[0.403016,42.859846],[0.40318,42.859667],[0.403597,42.859363],[0.403769,42.859142],[0.403871,42.858929],[0.403967,42.858661],[0.404054,42.858377],[0.40417,42.857783],[0.404381,42.857221],[0.404475,42.856655],[0.404475,42.856327],[0.404471,42.856202],[0.404573,42.855864],[0.404915,42.855156],[0.405371,42.854457],[0.40553,42.8543],[0.405933,42.854068],[0.406482,42.853804],[0.406669,42.853672],[0.406824,42.853511],[0.406932,42.853371],[0.407022,42.853211],[0.407128,42.852921],[0.40718,42.852698],[0.407119,42.852187],[0.407151,42.851856],[0.407301,42.851258],[0.407609,42.850809],[0.407711,42.850601],[0.407867,42.85006],[0.407929,42.849967],[0.408218,42.849705],[0.408378,42.849481],[0.408423,42.849324],[0.408475,42.848865],[0.408533,42.848677],[0.408622,42.84842],[0.408728,42.848218],[0.408907,42.847962],[0.409369,42.847258],[0.409457,42.847059],[0.409473,42.846841],[0.409441,42.846481],[0.409454,42.846322],[0.409441,42.846229],[0.409457,42.846],[0.409435,42.845944],[0.409405,42.845745],[0.409398,42.845727],[0.409276,42.845445],[0.409132,42.845248],[0.408789,42.84492],[0.408462,42.844728],[0.408325,42.844602],[0.408236,42.844449],[0.408157,42.844114],[0.408,42.843487],[0.40796,42.843399],[0.407825,42.84299],[0.407653,42.842483],[0.407447,42.842126],[0.407419,42.842039],[0.407306,42.841711],[0.407268,42.841601],[0.407117,42.84116],[0.407115,42.840781],[0.406973,42.840214],[0.406888,42.839913],[0.406844,42.839756],[0.40675,42.839453],[0.406592,42.839154],[0.406556,42.839098],[0.406488,42.838995],[0.406412,42.838643],[0.406342,42.837927],[0.406324,42.837795],[0.406299,42.837676],[0.405964,42.836491],[0.405653,42.834388],[0.405611,42.834236],[0.40536,42.833788],[0.405311,42.833678],[0.405147,42.83335],[0.404703,42.832646],[0.404589,42.832382],[0.404531,42.832095],[0.40449,42.831993],[0.404339,42.831744],[0.404245,42.831544],[0.404218,42.831442],[0.404281,42.830383],[0.404269,42.8294],[0.404263,42.828923],[0.404197,42.828142],[0.404339,42.827689],[0.405121,42.825995],[0.405298,42.825361],[0.405402,42.824374],[0.405405,42.823493],[0.405399,42.823084],[0.40539,42.822623],[0.405488,42.821886],[0.405485,42.821762],[0.405364,42.820915],[0.405302,42.820474],[0.405264,42.820195],[0.405184,42.819587],[0.405143,42.819332],[0.405106,42.819123],[0.405112,42.818846],[0.405181,42.818273],[0.40514,42.817348],[0.405136,42.817002],[0.405136,42.81693],[0.40514,42.815797],[0.405153,42.815607],[0.405226,42.815188],[0.405266,42.814686],[0.405232,42.814357],[0.405153,42.81405],[0.405039,42.813818],[0.404819,42.813524],[0.404682,42.813338],[0.40465,42.813192],[0.404678,42.813085],[0.404738,42.812972],[0.405008,42.812716],[0.405098,42.812604],[0.405136,42.812527],[0.405132,42.812389],[0.405086,42.812319],[0.404929,42.812185],[0.404415,42.811837],[0.403999,42.811575],[0.403952,42.811544],[0.403754,42.811387],[0.403677,42.811274],[0.403558,42.811161],[0.403156,42.811008],[0.40303,42.810948],[0.402909,42.810849],[0.402643,42.810429],[0.402539,42.810292],[0.402231,42.810027],[0.402035,42.809831],[0.401878,42.809578],[0.401798,42.809345],[0.401784,42.809273],[0.401797,42.809215],[0.401875,42.809196],[0.401954,42.809153],[0.402054,42.809038],[0.402393,42.808614],[0.402546,42.808404],[0.402692,42.808106],[0.402852,42.807642],[0.403221,42.80654],[0.403407,42.805902],[0.403438,42.80573],[0.403524,42.804859],[0.403679,42.80432],[0.403783,42.80411],[0.404684,42.80279],[0.404746,42.802611],[0.404762,42.802452],[0.404722,42.801805],[0.404788,42.801377],[0.405096,42.800144],[0.405167,42.799971],[0.40523,42.799874],[0.405749,42.799317],[0.405859,42.799089],[0.406101,42.798435],[0.406101,42.798434],[0.406259,42.797974],[0.40632,42.797795],[0.406526,42.79698],[0.40664,42.796566],[0.406678,42.796503],[0.406769,42.796425],[0.406859,42.796383],[0.406982,42.79636],[0.407252,42.796335],[0.40745,42.796308],[0.40777,42.796269],[0.408175,42.796252],[0.408412,42.796268],[0.408938,42.796396],[0.409041,42.79645],[0.4091,42.796519],[0.409216,42.797023],[0.409278,42.79729],[0.409357,42.797519],[0.409685,42.798205],[0.409759,42.798354],[0.410119,42.79908],[0.41023,42.799234],[0.410289,42.799264],[0.410357,42.799306],[0.410451,42.799338],[0.410653,42.799377],[0.410736,42.799393],[0.410831,42.799412],[0.410893,42.799473]],"type":"LineString"}}],"metadata":{"attribution":"openrouteservice.org | OpenStreetMap contributors","service":"routing","timestamp":1765225056940,"query":{"coordinates":[[0.358284,42.904081],[0.406092,42.798432],[0.410898,42.799471]],"profile":"driving-car","profileName":"driving-car","format":"geojson"},"engine":{"version":"9.5.0","build_date":"2025-10-31T12:33:09Z","graph_date":"2025-12-07T11:20:28Z","osm_date":"2025-12-01T01:00:00Z"}}}