{"type":"FeatureCollection","bbox":[1.741903,42.843813,1.897705,43.085462],"features":[{"bbox":[1.741903,42.843813,1.897705,43.085462],"type":"Feature","properties":{"segments":[{"distance":40239.2,"duration":2917.4,"steps":[{"distance":49.1,"duration":7.1,"type":11,"instruction":"Head south on Avenue Victor Hugo, D 119a","name":"Avenue Victor Hugo, D 119a","way_points":[0,2]},{"distance":61.9,"duration":19.7,"type":7,"instruction":"Enter the roundabout and take the 2nd exit onto D 119","name":"D 119","exit_number":2,"way_points":[2,8]},{"distance":63.9,"duration":23.0,"type":7,"instruction":"Enter the roundabout and take the 2nd exit onto D 625","name":"D 625","exit_number":2,"way_points":[8,14]},{"distance":12749.0,"duration":759.2,"type":5,"instruction":"Turn slight right onto Avenue Charles de Gaulle, D 625","name":"Avenue Charles de Gaulle, D 625","way_points":[14,123]},{"distance":1586.0,"duration":111.2,"type":7,"instruction":"Enter the roundabout and take the 2nd exit onto Avenue du 8 Mai 1945, D 625","name":"Avenue du 8 Mai 1945, D 625","exit_number":2,"way_points":[123,146]},{"distance":1733.0,"duration":130.2,"type":7,"instruction":"Enter the roundabout and take the 2nd exit onto Avenue du 11 Novembre 1918, D 625","name":"Avenue du 11 Novembre 1918, D 625","exit_number":2,"way_points":[146,178]},{"distance":1979.1,"duration":181.0,"type":6,"instruction":"Continue straight onto D 625","name":"D 625","way_points":[178,221]},{"distance":1320.4,"duration":126.9,"type":7,"instruction":"Enter the roundabout and take the 1st exit onto Rue Jean Jaurès, D 117","name":"Rue Jean Jaurès, D 117","exit_number":1,"way_points":[221,252]},{"distance":825.2,"duration":86.7,"type":7,"instruction":"Enter the roundabout and take the 2nd exit onto Avenue Léon Blum, D 117","name":"Avenue Léon Blum, D 117","exit_number":2,"way_points":[252,272]},{"distance":18.1,"duration":9.0,"type":12,"instruction":"Keep left onto D 9","name":"D 9","way_points":[272,274]},{"distance":5716.7,"duration":429.9,"type":0,"instruction":"Turn left onto D 9","name":"D 9","way_points":[274,388]},{"distance":14135.1,"duration":1032.9,"type":1,"instruction":"Turn right onto D 909","name":"D 909","way_points":[388,883]},{"distance":1.7,"duration":0.6,"type":1,"instruction":"Turn right","name":"-","way_points":[883,884]},{"distance":0.0,"duration":0.0,"type":10,"instruction":"Arrive at your destination, straight ahead","name":"-","way_points":[884,884]}]}],"way_points":[0,884],"summary":{"distance":40239.2,"duration":2917.4},"name":"Navette Mirepoix -  Les Monts d'Olmes"},"geometry":{"coordinates":[[1.876047,43.085462],[1.876037,43.085069],[1.876069,43.085027],[1.876047,43.084997],[1.876054,43.08496],[1.876076,43.084941],[1.876144,43.084785],[1.876177,43.084681],[1.876153,43.084492],[1.876091,43.084444],[1.876061,43.084351],[1.876076,43.084302],[1.87614,43.084238],[1.876272,43.084201],[1.876394,43.084045],[1.876456,43.083845],[1.876491,43.083589],[1.876547,43.081347],[1.876616,43.079377],[1.876735,43.078863],[1.877368,43.077152],[1.877441,43.076947],[1.87789,43.075739],[1.87832,43.074582],[1.878456,43.07415],[1.878741,43.073008],[1.878794,43.072776],[1.879276,43.070633],[1.880116,43.06691],[1.880263,43.06608],[1.880346,43.065432],[1.880475,43.064769],[1.880572,43.064384],[1.882282,43.060454],[1.882412,43.060217],[1.883028,43.059292],[1.883134,43.059133],[1.883456,43.058649],[1.884701,43.056779],[1.885051,43.056227],[1.885474,43.0554],[1.885604,43.055153],[1.885801,43.054793],[1.886006,43.054403],[1.886106,43.054211],[1.88638,43.053741],[1.886435,43.053654],[1.88646,43.05362],[1.886684,43.053276],[1.886847,43.053088],[1.887083,43.052814],[1.887132,43.052768],[1.88733,43.052591],[1.887494,43.052422],[1.890695,43.049366],[1.893454,43.046715],[1.893889,43.046284],[1.894448,43.04561],[1.894782,43.045155],[1.895017,43.044763],[1.895738,43.043428],[1.89708,43.041079],[1.897508,43.039859],[1.897674,43.039124],[1.897705,43.038746],[1.897691,43.037987],[1.897624,43.037324],[1.897183,43.034005],[1.896967,43.032325],[1.89667,43.030207],[1.896444,43.028683],[1.89619,43.02792],[1.89581,43.0272],[1.894147,43.024687],[1.893881,43.024204],[1.893435,43.022945],[1.892775,43.021022],[1.891771,43.018791],[1.89059,43.016338],[1.890008,43.015129],[1.889439,43.01416],[1.889003,43.013522],[1.888678,43.013108],[1.888275,43.012685],[1.887849,43.012204],[1.887462,43.011686],[1.887143,43.011194],[1.887054,43.01105],[1.885542,43.008739],[1.884776,43.007533],[1.88263,43.003335],[1.882024,43.002115],[1.880646,42.999305],[1.87999,42.997957],[1.879632,42.997222],[1.879599,42.997154],[1.879295,42.996541],[1.879064,42.996075],[1.878916,42.995793],[1.878392,42.994739],[1.878028,42.994018],[1.877895,42.993756],[1.877814,42.99362],[1.877624,42.993329],[1.877367,42.992935],[1.873902,42.987647],[1.873224,42.986637],[1.872752,42.985954],[1.872703,42.985877],[1.872474,42.98553],[1.87243,42.985459],[1.872264,42.985193],[1.871957,42.984701],[1.871925,42.984652],[1.871364,42.983789],[1.870277,42.982163],[1.869536,42.981056],[1.869252,42.980624],[1.86918,42.98049],[1.869001,42.980082],[1.868669,42.978609],[1.86853,42.978096],[1.868408,42.977692],[1.868131,42.977139],[1.867968,42.977054],[1.86792,42.976981],[1.867931,42.976891],[1.867992,42.976831],[1.868074,42.976719],[1.868092,42.976639],[1.868017,42.976301],[1.86762,42.974806],[1.867449,42.97416],[1.867416,42.974053],[1.867352,42.973799],[1.866994,42.972465],[1.866663,42.971228],[1.866081,42.969075],[1.86603,42.968861],[1.86599,42.968713],[1.865935,42.968507],[1.865661,42.967487],[1.865266,42.965987],[1.864883,42.964533],[1.864625,42.963653],[1.864494,42.963328],[1.864434,42.963248],[1.864361,42.963218],[1.864316,42.963164],[1.864316,42.9631],[1.864331,42.963074],[1.864357,42.962935],[1.864302,42.962601],[1.864291,42.962407],[1.863704,42.960171],[1.863551,42.959641],[1.86346,42.959268],[1.863215,42.957965],[1.86313,42.957623],[1.863008,42.957324],[1.86285,42.957114],[1.862722,42.956996],[1.862606,42.956883],[1.861377,42.956181],[1.861161,42.955996],[1.861063,42.955874],[1.861002,42.95576],[1.860967,42.955639],[1.860895,42.954809],[1.860848,42.954552],[1.860733,42.954189],[1.859693,42.95113],[1.859367,42.950234],[1.859163,42.949638],[1.859127,42.949495],[1.859105,42.949342],[1.859123,42.949101],[1.859185,42.948802],[1.85926,42.948588],[1.859299,42.948473],[1.859344,42.948329],[1.859367,42.948187],[1.859358,42.947896],[1.859267,42.947644],[1.858914,42.947014],[1.858677,42.946607],[1.858156,42.945651],[1.857811,42.944979],[1.857745,42.944859],[1.856862,42.943216],[1.856652,42.942944],[1.856278,42.942502],[1.855899,42.942038],[1.855671,42.941761],[1.855243,42.941255],[1.855032,42.940998],[1.854785,42.940699],[1.854673,42.940564],[1.854319,42.940126],[1.854254,42.940042],[1.854117,42.939879],[1.85402,42.939763],[1.853615,42.939274],[1.853398,42.939017],[1.852895,42.938419],[1.852839,42.938366],[1.852406,42.937805],[1.852287,42.937668],[1.852042,42.93737],[1.851312,42.936485],[1.851074,42.936198],[1.850651,42.935661],[1.850599,42.93557],[1.850075,42.934998],[1.850001,42.934906],[1.849916,42.934779],[1.849427,42.934091],[1.849274,42.933869],[1.848928,42.933373],[1.848782,42.933166],[1.84872,42.933026],[1.848551,42.932801],[1.848446,42.932739],[1.848421,42.932698],[1.848253,42.932619],[1.848126,42.932585],[1.848024,42.932573],[1.847692,42.932478],[1.847578,42.932427],[1.847303,42.932253],[1.84707,42.932075],[1.846647,42.931745],[1.846072,42.931309],[1.845913,42.931183],[1.844866,42.930376],[1.844824,42.930344],[1.843146,42.929037],[1.842925,42.928863],[1.842337,42.928421],[1.842178,42.928296],[1.842096,42.928231],[1.84198,42.928139],[1.841445,42.927718],[1.840285,42.926818],[1.840179,42.926736],[1.839987,42.926587],[1.839087,42.925886],[1.838518,42.925452],[1.838291,42.925269],[1.838148,42.925156],[1.838042,42.925093],[1.837305,42.924535],[1.837137,42.924455],[1.837022,42.924453],[1.836959,42.924431],[1.836924,42.924406],[1.836887,42.924342],[1.836896,42.92426],[1.836828,42.92417],[1.836277,42.923708],[1.836023,42.923513],[1.833765,42.921766],[1.8334,42.921483],[1.833012,42.921186],[1.832516,42.920805],[1.831438,42.919993],[1.831242,42.919869],[1.831035,42.919742],[1.830864,42.919642],[1.830628,42.919506],[1.830562,42.919468],[1.830396,42.91939],[1.83012,42.919203],[1.830101,42.919142],[1.830068,42.919045],[1.830595,42.918846],[1.830748,42.918705],[1.830821,42.918586],[1.831316,42.916113],[1.831327,42.915636],[1.831271,42.91535],[1.831178,42.915101],[1.831073,42.914912],[1.830961,42.914736],[1.830798,42.91455],[1.830597,42.914358],[1.830369,42.914197],[1.830124,42.914055],[1.82729,42.912659],[1.826816,42.912312],[1.826635,42.912183],[1.826322,42.911975],[1.825862,42.911558],[1.825524,42.911241],[1.825299,42.911031],[1.823669,42.909408],[1.823631,42.909373],[1.823225,42.909012],[1.823154,42.908971],[1.823047,42.908928],[1.822939,42.908898],[1.8219,42.90868],[1.820788,42.90826],[1.820331,42.908087],[1.819951,42.907943],[1.817921,42.907165],[1.817787,42.907114],[1.817646,42.907057],[1.817499,42.906992],[1.817217,42.906854],[1.816977,42.906714],[1.815848,42.905975],[1.815056,42.905423],[1.814723,42.905141],[1.814377,42.904815],[1.813596,42.904059],[1.813444,42.903936],[1.813242,42.903832],[1.812923,42.903688],[1.81232,42.903547],[1.812162,42.903476],[1.811465,42.903099],[1.811343,42.903053],[1.810647,42.90291],[1.810472,42.902829],[1.810202,42.902693],[1.809707,42.902482],[1.808285,42.901978],[1.807599,42.901784],[1.80636,42.901506],[1.80594,42.901365],[1.804664,42.900789],[1.803734,42.900377],[1.8003,42.899337],[1.799474,42.899083],[1.797253,42.897977],[1.797039,42.897863],[1.796892,42.897763],[1.796249,42.897088],[1.796128,42.896962],[1.796079,42.89688],[1.79607,42.896821],[1.796162,42.896569],[1.796151,42.896471],[1.795571,42.89549],[1.795452,42.895385],[1.795139,42.895228],[1.794752,42.895065],[1.794467,42.894935],[1.794327,42.894854],[1.794234,42.894736],[1.793939,42.894135],[1.793855,42.893999],[1.79353,42.893516],[1.793222,42.893028],[1.792719,42.892436],[1.792576,42.892185],[1.792534,42.892055],[1.792457,42.891944],[1.792159,42.891693],[1.792015,42.89147],[1.791938,42.891213],[1.791864,42.890857],[1.791893,42.890578],[1.79198,42.890249],[1.792104,42.889899],[1.792312,42.889414],[1.792379,42.889096],[1.792506,42.888731],[1.792581,42.888609],[1.792844,42.888292],[1.793199,42.887806],[1.793269,42.88761],[1.793315,42.887346],[1.793425,42.887011],[1.793547,42.886787],[1.793805,42.886484],[1.793958,42.886341],[1.794076,42.886275],[1.794225,42.886224],[1.794453,42.886188],[1.794619,42.88619],[1.795278,42.88625],[1.795441,42.886242],[1.79564,42.886213],[1.796406,42.88601],[1.79669,42.885956],[1.796911,42.885929],[1.797954,42.885884],[1.797989,42.885827],[1.79806,42.885805],[1.798276,42.885805],[1.798774,42.885844],[1.798925,42.885831],[1.799073,42.885783],[1.79966,42.885444],[1.800166,42.884947],[1.800448,42.884744],[1.800558,42.884687],[1.800996,42.88457],[1.801086,42.88452],[1.801136,42.884472],[1.801168,42.884408],[1.801177,42.884332],[1.801136,42.884206],[1.80109,42.884155],[1.801004,42.884111],[1.800577,42.88408],[1.800185,42.883933],[1.800001,42.883826],[1.799863,42.883722],[1.799706,42.883553],[1.799481,42.883241],[1.799121,42.882931],[1.798748,42.88274],[1.7987,42.882659],[1.798707,42.882631],[1.798747,42.882592],[1.798835,42.882572],[1.799164,42.882691],[1.800307,42.883057],[1.800709,42.883252],[1.800967,42.883308],[1.801039,42.883311],[1.801123,42.883292],[1.801168,42.883258],[1.801172,42.883194],[1.801117,42.883119],[1.800911,42.883019],[1.800749,42.882889],[1.800537,42.882676],[1.800326,42.882525],[1.799942,42.882305],[1.799727,42.882138],[1.799575,42.88199],[1.799325,42.881664],[1.799269,42.881499],[1.799228,42.881286],[1.799202,42.880656],[1.799108,42.880009],[1.799044,42.879743],[1.798974,42.879573],[1.798794,42.87937],[1.798778,42.879302],[1.798834,42.879253],[1.798912,42.879233],[1.799002,42.879272],[1.799738,42.880142],[1.79991,42.880373],[1.799967,42.880475],[1.800079,42.881074],[1.800152,42.881195],[1.800291,42.881281],[1.800423,42.881318],[1.800605,42.881348],[1.801321,42.88133],[1.801431,42.881288],[1.801466,42.881221],[1.801434,42.881153],[1.80136,42.881113],[1.800931,42.881128],[1.800771,42.8811],[1.80068,42.881048],[1.800615,42.880972],[1.800616,42.880869],[1.800715,42.880671],[1.800731,42.880486],[1.800613,42.880174],[1.800186,42.879298],[1.800014,42.878675],[1.799757,42.878228],[1.799043,42.877474],[1.798853,42.877344],[1.798349,42.877088],[1.798063,42.876912],[1.797335,42.876404],[1.797064,42.876178],[1.796764,42.875884],[1.79652,42.875565],[1.79622,42.875229],[1.796164,42.875089],[1.796141,42.874901],[1.796098,42.874748],[1.796032,42.874692],[1.795915,42.87467],[1.795805,42.874662],[1.795653,42.874698],[1.795431,42.874802],[1.795229,42.874922],[1.795069,42.875094],[1.794586,42.875777],[1.794529,42.87588],[1.794489,42.87608],[1.794325,42.876522],[1.794199,42.876951],[1.794093,42.877438],[1.794091,42.878038],[1.794116,42.878187],[1.794265,42.878457],[1.794277,42.878553],[1.794248,42.878627],[1.793979,42.878912],[1.79381,42.879166],[1.793604,42.879374],[1.79347,42.879455],[1.793285,42.879505],[1.793084,42.879517],[1.792738,42.87951],[1.792435,42.879477],[1.792104,42.879403],[1.791642,42.879276],[1.791415,42.879178],[1.791051,42.878945],[1.79078,42.878818],[1.790549,42.878751],[1.790295,42.878727],[1.789994,42.878732],[1.789757,42.878761],[1.789544,42.878814],[1.789377,42.878913],[1.788662,42.879507],[1.788521,42.879642],[1.788406,42.879819],[1.788348,42.879962],[1.788313,42.880114],[1.788312,42.880267],[1.788285,42.880395],[1.788226,42.880479],[1.787914,42.880687],[1.787782,42.880791],[1.787684,42.8809],[1.787637,42.881012],[1.787582,42.881269],[1.787517,42.881418],[1.787365,42.881546],[1.787204,42.881604],[1.786976,42.881638],[1.786207,42.881676],[1.785555,42.881613],[1.785239,42.881603],[1.784686,42.881644],[1.783822,42.881682],[1.783556,42.881664],[1.783068,42.88157],[1.782698,42.881542],[1.782186,42.88156],[1.781829,42.881548],[1.780874,42.881382],[1.780033,42.881178],[1.779879,42.881089],[1.77829,42.879891],[1.777914,42.879644],[1.777649,42.879496],[1.777546,42.879256],[1.777476,42.878718],[1.777478,42.878474],[1.77744,42.877669],[1.777387,42.877446],[1.777281,42.877311],[1.777041,42.8771],[1.776097,42.876609],[1.775456,42.876234],[1.775199,42.876033],[1.77466,42.875553],[1.77448,42.875345],[1.774174,42.874854],[1.773989,42.874653],[1.773769,42.874521],[1.773552,42.874448],[1.772661,42.874234],[1.772522,42.874177],[1.772443,42.874091],[1.772315,42.873851],[1.771914,42.873612],[1.771836,42.873491],[1.771822,42.873322],[1.771836,42.872811],[1.771814,42.872501],[1.771781,42.872412],[1.771697,42.872346],[1.771483,42.872269],[1.771214,42.872207],[1.770998,42.872111],[1.770546,42.871867],[1.770502,42.871788],[1.770481,42.871648],[1.770476,42.871283],[1.770496,42.870985],[1.770529,42.870816],[1.770588,42.870667],[1.770704,42.87052],[1.771182,42.870013],[1.771862,42.869451],[1.771902,42.869325],[1.771852,42.869268],[1.771736,42.869245],[1.771371,42.869285],[1.77117,42.869281],[1.770904,42.869251],[1.770535,42.869186],[1.770215,42.869106],[1.769923,42.868998],[1.769644,42.868853],[1.769263,42.868591],[1.768857,42.868272],[1.768726,42.868105],[1.768579,42.867838],[1.768254,42.867538],[1.768179,42.867417],[1.768138,42.867282],[1.768164,42.867065],[1.768301,42.866686],[1.768305,42.866595],[1.768245,42.86653],[1.768158,42.866507],[1.768066,42.866508],[1.767935,42.86657],[1.767466,42.866887],[1.766872,42.867233],[1.766201,42.867598],[1.766055,42.867645],[1.765866,42.867664],[1.765656,42.867639],[1.765294,42.86751],[1.763778,42.866864],[1.763718,42.866813],[1.763681,42.866723],[1.763721,42.866598],[1.763972,42.866167],[1.764048,42.865868],[1.763991,42.865634],[1.763892,42.865483],[1.763854,42.865385],[1.763882,42.865279],[1.764141,42.865006],[1.764349,42.864715],[1.764595,42.864432],[1.764652,42.864291],[1.764623,42.864113],[1.76447,42.863945],[1.763994,42.863577],[1.763866,42.863521],[1.763767,42.86351],[1.763134,42.863682],[1.762957,42.863701],[1.762801,42.863672],[1.762705,42.863591],[1.762664,42.86353],[1.762675,42.863361],[1.762628,42.863259],[1.762535,42.863209],[1.762402,42.863218],[1.762116,42.863391],[1.761951,42.863434],[1.761796,42.863422],[1.761619,42.863346],[1.76139,42.863214],[1.761294,42.863208],[1.761189,42.863237],[1.760978,42.863395],[1.760841,42.863432],[1.76068,42.863416],[1.760489,42.863352],[1.760232,42.863236],[1.760033,42.863181],[1.759553,42.863161],[1.759262,42.863185],[1.758699,42.863331],[1.757841,42.863431],[1.757689,42.863407],[1.757452,42.863335],[1.757217,42.863188],[1.75671,42.862807],[1.756465,42.862567],[1.756337,42.862471],[1.75618,42.862443],[1.7559,42.862496],[1.755698,42.862502],[1.755576,42.862467],[1.755474,42.862389],[1.75527,42.862044],[1.755265,42.861864],[1.75531,42.861764],[1.755572,42.861593],[1.755602,42.861504],[1.755576,42.861391],[1.755515,42.861291],[1.755213,42.860961],[1.755016,42.860778],[1.754729,42.860596],[1.754542,42.860532],[1.754387,42.860511],[1.754268,42.860518],[1.754143,42.860572],[1.753946,42.86077],[1.753816,42.860962],[1.753731,42.861131],[1.75365,42.861226],[1.753488,42.861337],[1.753039,42.861568],[1.752923,42.861606],[1.752761,42.86163],[1.752582,42.861627],[1.752382,42.861589],[1.751794,42.861403],[1.75152,42.861272],[1.75124,42.86106],[1.750827,42.860675],[1.7507,42.860506],[1.750671,42.860278],[1.750691,42.860043],[1.750777,42.859657],[1.750907,42.859309],[1.751355,42.858383],[1.751507,42.858118],[1.751706,42.857837],[1.751996,42.857186],[1.752122,42.856957],[1.75275,42.855972],[1.752966,42.855711],[1.753722,42.854921],[1.754057,42.854614],[1.754386,42.854253],[1.755243,42.853218],[1.755506,42.85285],[1.75575,42.852367],[1.755914,42.851879],[1.756018,42.851729],[1.75619,42.85155],[1.75627,42.851389],[1.75627,42.851283],[1.756204,42.851121],[1.755938,42.850701],[1.755865,42.850384],[1.755833,42.850121],[1.755899,42.849314],[1.755964,42.848106],[1.755935,42.847719],[1.755886,42.847595],[1.755806,42.847528],[1.755672,42.847514],[1.755582,42.847533],[1.755216,42.847677],[1.754705,42.847797],[1.754532,42.847895],[1.754245,42.848153],[1.753879,42.848413],[1.753725,42.848617],[1.753379,42.849254],[1.753227,42.849438],[1.75282,42.849818],[1.752598,42.850164],[1.752517,42.850262],[1.752373,42.850353],[1.752159,42.850453],[1.751837,42.850579],[1.75167,42.850626],[1.751064,42.850721],[1.750852,42.850774],[1.750513,42.850901],[1.749919,42.85121],[1.749777,42.851246],[1.749661,42.851249],[1.749562,42.851221],[1.749462,42.851131],[1.749428,42.851027],[1.749419,42.850827],[1.749373,42.850766],[1.749262,42.850724],[1.748934,42.850677],[1.748684,42.850692],[1.748514,42.850759],[1.748284,42.850885],[1.748165,42.850923],[1.748032,42.850919],[1.747743,42.850815],[1.747612,42.850801],[1.747411,42.850819],[1.747157,42.850896],[1.746969,42.850914],[1.746824,42.850911],[1.746646,42.85087],[1.746443,42.850773],[1.745726,42.850106],[1.74541,42.849918],[1.744935,42.849743],[1.744863,42.849706],[1.744832,42.849669],[1.744863,42.849601],[1.744919,42.849566],[1.745015,42.849574],[1.746269,42.849949],[1.746585,42.849997],[1.746817,42.85],[1.747108,42.849962],[1.747332,42.849893],[1.747784,42.84958],[1.74792,42.849516],[1.748451,42.849367],[1.74857,42.849287],[1.74863,42.849213],[1.748682,42.849075],[1.748716,42.848859],[1.748531,42.848406],[1.74858,42.84831],[1.748706,42.84826],[1.749091,42.848242],[1.749331,42.848204],[1.749722,42.848069],[1.749949,42.847966],[1.7501,42.847834],[1.750204,42.847678],[1.750327,42.847317],[1.75042,42.846962],[1.750437,42.846671],[1.750344,42.846235],[1.750398,42.845945],[1.750407,42.84573],[1.750458,42.845488],[1.750531,42.845354],[1.750671,42.845177],[1.750682,42.84509],[1.750635,42.845055],[1.750561,42.845042],[1.750456,42.84508],[1.750207,42.845358],[1.750099,42.845423],[1.749916,42.845502],[1.749618,42.845589],[1.749449,42.8456],[1.749238,42.845576],[1.748902,42.845504],[1.748717,42.845504],[1.748586,42.845542],[1.748505,42.845634],[1.74849,42.845748],[1.74854,42.846178],[1.7485,42.846276],[1.748415,42.84634],[1.748323,42.846358],[1.748226,42.846336],[1.746738,42.845612],[1.746427,42.845513],[1.746096,42.845446],[1.7458,42.845429],[1.745615,42.845462],[1.745483,42.845525],[1.745365,42.845644],[1.74522,42.84583],[1.745061,42.845981],[1.744849,42.846117],[1.744558,42.846259],[1.744333,42.846331],[1.744168,42.846361],[1.743656,42.84641],[1.743192,42.846481],[1.74274,42.84653],[1.742485,42.84653],[1.742313,42.846488],[1.742213,42.846446],[1.741976,42.846273],[1.741903,42.846126],[1.741926,42.845978],[1.742058,42.845805],[1.742126,42.845638],[1.742167,42.845447],[1.742224,42.845307],[1.742351,42.845168],[1.742513,42.845095],[1.742746,42.845051],[1.743,42.845051],[1.743337,42.84515],[1.743506,42.845176],[1.743675,42.845168],[1.743822,42.845116],[1.744013,42.844988],[1.744147,42.844857],[1.74419,42.844762],[1.74421,42.844565],[1.744191,42.844335],[1.744195,42.844177],[1.744241,42.843994],[1.74432,42.84387],[1.744384,42.843826],[1.744375,42.843813]],"type":"LineString"}}],"metadata":{"attribution":"openrouteservice.org | OpenStreetMap contributors","service":"routing","timestamp":1765207786622,"query":{"coordinates":[[1.876028,43.085462],[1.744385,42.84381]],"profile":"driving-car","profileName":"driving-car","format":"geojson"},"engine":{"version":"9.5.0","build_date":"2025-10-31T12:33:09Z","graph_date":"2025-12-07T11:20:28Z","osm_date":"2025-12-01T01:00:00Z"}}}