{"type":"FeatureCollection","bbox":[0.385978,42.791942,0.410893,42.809215],"features":[{"bbox":[0.385978,42.791942,0.410893,42.809215],"type":"Feature","properties":{"segments":[{"distance":812.0,"duration":73.5,"steps":[{"distance":812.0,"duration":73.5,"type":11,"instruction":"Head southwest on Chemin du Hourgade, D 25","name":"Chemin du Hourgade, D 25","way_points":[0,30]},{"distance":0.0,"duration":0.0,"type":10,"instruction":"Arrive at Chemin du Hourgade, D 25, on the left","name":"-","way_points":[30,30]}]},{"distance":7936.1,"duration":580.9,"steps":[{"distance":1273.3,"duration":93.6,"type":11,"instruction":"Head north on Route de Loudenvielle, D 25","name":"Route de Loudenvielle, D 25","way_points":[30,55]},{"distance":6662.8,"duration":487.3,"type":0,"instruction":"Turn left onto D 225","name":"D 225","way_points":[55,307]},{"distance":0.0,"duration":0.0,"type":10,"instruction":"Arrive at D 225, straight ahead","name":"-","way_points":[307,307]}]}],"way_points":[0,30,307],"summary":{"distance":8748.1,"duration":654.4},"name":"Navette Loudenvielle - Vallouron"},"geometry":{"coordinates":[[0.410893,42.799473],[0.410831,42.799412],[0.410736,42.799393],[0.410653,42.799377],[0.410451,42.799338],[0.410357,42.799306],[0.410289,42.799264],[0.41023,42.799234],[0.410119,42.79908],[0.409759,42.798354],[0.409685,42.798205],[0.409357,42.797519],[0.409278,42.79729],[0.409216,42.797023],[0.4091,42.796519],[0.409041,42.79645],[0.408938,42.796396],[0.408412,42.796268],[0.408175,42.796252],[0.40777,42.796269],[0.40745,42.796308],[0.407252,42.796335],[0.406982,42.79636],[0.406859,42.796383],[0.406769,42.796425],[0.406678,42.796503],[0.40664,42.796566],[0.406526,42.79698],[0.40632,42.797795],[0.406259,42.797974],[0.406101,42.798434],[0.406101,42.798435],[0.405859,42.799089],[0.405749,42.799317],[0.40523,42.799874],[0.405167,42.799971],[0.405096,42.800144],[0.404788,42.801377],[0.404722,42.801805],[0.404762,42.802452],[0.404746,42.802611],[0.404684,42.80279],[0.403783,42.80411],[0.403679,42.80432],[0.403524,42.804859],[0.403438,42.80573],[0.403407,42.805902],[0.403221,42.80654],[0.402852,42.807642],[0.402692,42.808106],[0.402546,42.808404],[0.402393,42.808614],[0.402054,42.809038],[0.401954,42.809153],[0.401875,42.809196],[0.401797,42.809215],[0.401675,42.809138],[0.401568,42.808991],[0.401055,42.807998],[0.400927,42.807826],[0.40078,42.807725],[0.400558,42.807603],[0.400274,42.807388],[0.400149,42.807271],[0.399979,42.807066],[0.399887,42.806934],[0.39984,42.806833],[0.399811,42.806742],[0.399807,42.806637],[0.399828,42.806366],[0.39977,42.806029],[0.399798,42.805934],[0.400696,42.804753],[0.400739,42.804549],[0.400884,42.804207],[0.400876,42.804055],[0.400786,42.803774],[0.400792,42.803671],[0.401004,42.802681],[0.401049,42.802116],[0.401091,42.80187],[0.401075,42.801772],[0.401011,42.801727],[0.400956,42.801717],[0.400908,42.801724],[0.400866,42.801748],[0.400831,42.801796],[0.400683,42.80233],[0.400564,42.802591],[0.400473,42.802768],[0.400104,42.803331],[0.399811,42.803798],[0.399364,42.804335],[0.399308,42.804386],[0.399233,42.804412],[0.399159,42.804393],[0.399136,42.804367],[0.399143,42.804295],[0.399319,42.804085],[0.399461,42.803802],[0.399494,42.803694],[0.399609,42.802968],[0.399873,42.801993],[0.399876,42.801942],[0.399834,42.80187],[0.399732,42.801846],[0.399667,42.801854],[0.399619,42.801877],[0.399545,42.80198],[0.399318,42.802555],[0.398917,42.803218],[0.398675,42.803537],[0.398602,42.803602],[0.398508,42.803636],[0.398468,42.803633],[0.398409,42.803597],[0.398399,42.803539],[0.398417,42.803499],[0.398584,42.80327],[0.398635,42.80315],[0.398841,42.802376],[0.398881,42.80207],[0.398961,42.801786],[0.398922,42.801723],[0.398822,42.80171],[0.398765,42.801751],[0.398737,42.801805],[0.398633,42.802128],[0.398572,42.802251],[0.398458,42.802436],[0.398292,42.802634],[0.398161,42.802718],[0.397876,42.802825],[0.397783,42.802875],[0.396642,42.80375],[0.396423,42.803893],[0.396329,42.803971],[0.396123,42.804216],[0.396048,42.804244],[0.395983,42.80423],[0.39595,42.804192],[0.395966,42.804119],[0.396155,42.803871],[0.396261,42.803604],[0.396435,42.80329],[0.3965,42.8031],[0.396601,42.802887],[0.396864,42.802599],[0.396905,42.802536],[0.396966,42.802342],[0.397013,42.802254],[0.397251,42.801926],[0.397462,42.801713],[0.397579,42.801559],[0.39766,42.801368],[0.397659,42.801304],[0.397631,42.801259],[0.397576,42.801229],[0.397433,42.80122],[0.397362,42.801232],[0.397214,42.80129],[0.397047,42.801374],[0.396796,42.80153],[0.396597,42.801681],[0.396322,42.801923],[0.396221,42.801983],[0.39591,42.802127],[0.395667,42.802264],[0.395567,42.802276],[0.395496,42.802243],[0.395472,42.802163],[0.395518,42.802051],[0.395964,42.801636],[0.396109,42.801436],[0.396591,42.800652],[0.396601,42.800587],[0.39655,42.800531],[0.396506,42.800514],[0.396451,42.800513],[0.396337,42.800552],[0.39599,42.800883],[0.395553,42.801109],[0.395253,42.801316],[0.395187,42.801378],[0.395069,42.801557],[0.395006,42.80162],[0.39449,42.802005],[0.394329,42.80216],[0.394282,42.802188],[0.394204,42.802195],[0.394142,42.802164],[0.394128,42.802134],[0.394145,42.802041],[0.394277,42.80185],[0.394585,42.801378],[0.394802,42.800894],[0.394979,42.800683],[0.39511,42.800408],[0.395155,42.80018],[0.395151,42.799841],[0.395252,42.799442],[0.395258,42.799314],[0.395239,42.799185],[0.395187,42.799013],[0.395091,42.798862],[0.395018,42.798799],[0.394615,42.7986],[0.394508,42.79851],[0.394477,42.798405],[0.394503,42.798139],[0.394463,42.797968],[0.394319,42.7977],[0.39419,42.797396],[0.394136,42.797353],[0.394056,42.797348],[0.394015,42.797362],[0.393972,42.797464],[0.393986,42.79771],[0.393931,42.797846],[0.393887,42.7979],[0.393811,42.797964],[0.393642,42.798052],[0.393425,42.798094],[0.393224,42.798097],[0.39309,42.798107],[0.392966,42.798174],[0.392886,42.79832],[0.39283,42.798538],[0.392457,42.799231],[0.392366,42.799512],[0.392229,42.799771],[0.391643,42.800454],[0.39159,42.800617],[0.391564,42.800785],[0.391503,42.800885],[0.391379,42.800968],[0.390939,42.801079],[0.390787,42.801152],[0.390697,42.801219],[0.39034,42.801629],[0.390263,42.801692],[0.389733,42.801987],[0.38937,42.802139],[0.389146,42.802251],[0.388961,42.802351],[0.388707,42.802524],[0.388533,42.80267],[0.388362,42.80288],[0.388217,42.803162],[0.388179,42.803333],[0.388169,42.8035],[0.388122,42.803548],[0.388044,42.803557],[0.387974,42.803527],[0.387962,42.803462],[0.388333,42.802499],[0.388483,42.802306],[0.388904,42.80191],[0.389093,42.801669],[0.38923,42.801452],[0.389443,42.800941],[0.389755,42.800395],[0.389818,42.800198],[0.389859,42.799901],[0.389889,42.799846],[0.390048,42.799668],[0.390095,42.799574],[0.390111,42.799483],[0.390068,42.799274],[0.38983,42.798697],[0.389787,42.798637],[0.389675,42.798571],[0.389324,42.798499],[0.389073,42.798418],[0.388776,42.79825],[0.388356,42.797931],[0.388117,42.797748],[0.387452,42.797164],[0.387118,42.796714],[0.387089,42.796589],[0.387111,42.796512],[0.38718,42.796466],[0.387508,42.796331],[0.387699,42.796212],[0.387798,42.796119],[0.387874,42.79601],[0.38791,42.795939],[0.387924,42.795818],[0.387906,42.795757],[0.387775,42.79558],[0.38729,42.795131],[0.386281,42.794463],[0.38607,42.794233],[0.386013,42.794096],[0.386052,42.793797],[0.385978,42.793405],[0.385992,42.793349],[0.386053,42.793306],[0.386332,42.79321],[0.386901,42.793076],[0.387212,42.792988],[0.387412,42.792904],[0.387565,42.792806],[0.387763,42.792598],[0.387876,42.792518],[0.388174,42.792327],[0.388348,42.792244],[0.389213,42.791942]],"type":"LineString"}}],"metadata":{"attribution":"openrouteservice.org | OpenStreetMap contributors","service":"routing","timestamp":1765224608639,"query":{"coordinates":[[0.410898,42.799471],[0.406092,42.798432],[0.38921,42.791937]],"profile":"driving-car","profileName":"driving-car","format":"geojson"},"engine":{"version":"9.5.0","build_date":"2025-10-31T12:33:09Z","graph_date":"2025-12-07T11:20:28Z","osm_date":"2025-12-01T01:00:00Z"}}}