{"type":"FeatureCollection","bbox":[0.159261,42.778497,0.321844,42.818044],"features":[{"bbox":[0.159261,42.778497,0.321844,42.818044],"type":"Feature","properties":{"segments":[{"distance":20068.8,"duration":1453.0,"steps":[{"distance":636.0,"duration":67.0,"type":11,"instruction":"Head southwest on Avenue des Thermes, D 19","name":"Avenue des Thermes, D 19","way_points":[0,24]},{"distance":12438.5,"duration":873.3,"type":7,"instruction":"Enter the roundabout and take the 1st exit onto Route de Cap de Long, D 929","name":"Route de Cap de Long, D 929","exit_number":1,"way_points":[24,397]},{"distance":6649.7,"duration":476.8,"type":1,"instruction":"Turn right onto Route de Piau-Engaly, D 118","name":"Route de Piau-Engaly, D 118","way_points":[397,656]},{"distance":287.4,"duration":22.2,"type":7,"instruction":"Enter the roundabout and take the 3rd exit onto Route de Piau-Engaly","name":"Route de Piau-Engaly","exit_number":3,"way_points":[656,681]},{"distance":57.3,"duration":13.7,"type":7,"instruction":"Enter the roundabout and take the 2nd exit","name":"-","exit_number":2,"way_points":[681,693]},{"distance":0.0,"duration":0.0,"type":10,"instruction":"Arrive at your destination, on the right","name":"-","way_points":[693,693]}]}],"way_points":[0,693],"summary":{"distance":20068.8,"duration":1453.0},"name":"Navette Saint Lary -  Piau Engaly"},"geometry":{"coordinates":[[0.321844,42.818044],[0.321727,42.817929],[0.321654,42.817857],[0.321514,42.817702],[0.321453,42.817493],[0.321402,42.817368],[0.321371,42.817334],[0.321314,42.817271],[0.320469,42.816664],[0.320332,42.816513],[0.320184,42.816416],[0.320083,42.81637],[0.319983,42.816347],[0.31981,42.816309],[0.319717,42.816266],[0.319656,42.816212],[0.319144,42.815448],[0.319077,42.81535],[0.318858,42.815026],[0.318566,42.814658],[0.318489,42.814472],[0.318388,42.814163],[0.317981,42.813463],[0.317976,42.813406],[0.318019,42.813291],[0.317941,42.813247],[0.317923,42.813212],[0.317923,42.813175],[0.317961,42.813126],[0.317938,42.812971],[0.317705,42.812706],[0.317585,42.812612],[0.317452,42.812536],[0.31719,42.812411],[0.316459,42.8121],[0.316028,42.811903],[0.315397,42.81145],[0.315239,42.811371],[0.314534,42.811152],[0.31432,42.811025],[0.313964,42.810748],[0.313542,42.81052],[0.313383,42.810404],[0.313011,42.810029],[0.312948,42.809932],[0.312805,42.809473],[0.312703,42.809366],[0.312566,42.809288],[0.312375,42.809229],[0.311382,42.809013],[0.311199,42.808945],[0.311093,42.808864],[0.310841,42.808563],[0.310711,42.80844],[0.31009,42.80799],[0.309746,42.807698],[0.309686,42.807629],[0.309676,42.807573],[0.309825,42.80701],[0.309823,42.806887],[0.309783,42.806745],[0.309564,42.806379],[0.309409,42.806239],[0.309131,42.806064],[0.308675,42.805863],[0.306954,42.805327],[0.306735,42.805229],[0.306352,42.804961],[0.306033,42.80477],[0.305889,42.804707],[0.303517,42.803856],[0.302419,42.803423],[0.301533,42.802953],[0.298851,42.80126],[0.298771,42.801188],[0.298601,42.80104],[0.298136,42.800439],[0.297864,42.800223],[0.297669,42.800108],[0.296319,42.799469],[0.294596,42.798604],[0.294325,42.798449],[0.293847,42.798094],[0.293712,42.797997],[0.293578,42.79793],[0.293419,42.797873],[0.292829,42.797768],[0.292691,42.797777],[0.292478,42.797825],[0.292189,42.797963],[0.291983,42.798113],[0.291892,42.798215],[0.291716,42.798412],[0.291359,42.798913],[0.291251,42.798995],[0.291141,42.799057],[0.290991,42.799101],[0.290807,42.799127],[0.290615,42.799124],[0.290409,42.799088],[0.290261,42.79903],[0.289771,42.798778],[0.289306,42.798657],[0.28914,42.798585],[0.288292,42.798097],[0.288111,42.798021],[0.287964,42.797972],[0.287741,42.797948],[0.287471,42.797985],[0.287275,42.798039],[0.287121,42.798112],[0.286933,42.798241],[0.286676,42.798496],[0.286474,42.798647],[0.286174,42.798763],[0.285846,42.79882],[0.28565,42.798826],[0.285468,42.798817],[0.284849,42.798725],[0.283713,42.798669],[0.283448,42.798676],[0.282769,42.798748],[0.282305,42.798842],[0.282155,42.798855],[0.282009,42.798841],[0.28172,42.798768],[0.281485,42.798744],[0.280892,42.798738],[0.280755,42.798767],[0.280368,42.798903],[0.280189,42.79892],[0.279854,42.798927],[0.278559,42.798763],[0.277716,42.798692],[0.276987,42.798513],[0.275849,42.798206],[0.275669,42.798135],[0.275537,42.798062],[0.275272,42.797848],[0.275147,42.797774],[0.274567,42.797554],[0.274476,42.797496],[0.274378,42.797377],[0.274037,42.79684],[0.273902,42.796679],[0.273771,42.796563],[0.273342,42.79631],[0.27306,42.796092],[0.272974,42.79605],[0.272581,42.795919],[0.272447,42.795853],[0.271902,42.795522],[0.27168,42.795427],[0.270767,42.795203],[0.270255,42.795093],[0.27,42.795018],[0.26974,42.794926],[0.268715,42.794495],[0.26835,42.79432],[0.267984,42.794116],[0.267631,42.793869],[0.267495,42.793798],[0.267368,42.79376],[0.267154,42.793752],[0.266737,42.793883],[0.26646,42.793925],[0.266262,42.793915],[0.265997,42.793859],[0.265767,42.793774],[0.265196,42.793435],[0.264757,42.793243],[0.264585,42.793133],[0.264176,42.792812],[0.263991,42.792719],[0.263483,42.792542],[0.263208,42.792461],[0.262433,42.792118],[0.262114,42.791944],[0.260921,42.790695],[0.260421,42.790267],[0.259709,42.789768],[0.25952,42.789671],[0.258991,42.789493],[0.258633,42.789349],[0.258224,42.789138],[0.257632,42.788869],[0.256753,42.788309],[0.255468,42.787414],[0.255153,42.787217],[0.254868,42.787062],[0.254648,42.786971],[0.254306,42.786901],[0.254114,42.786896],[0.25368,42.786945],[0.253114,42.78698],[0.252795,42.787015],[0.252541,42.787059],[0.25207,42.78721],[0.251815,42.78725],[0.251105,42.787213],[0.249999,42.78723],[0.249806,42.787209],[0.249375,42.787092],[0.249161,42.787061],[0.247983,42.786999],[0.247324,42.787019],[0.246888,42.787051],[0.246749,42.787056],[0.246207,42.787083],[0.245824,42.787102],[0.245529,42.787088],[0.245342,42.787055],[0.245057,42.787004],[0.244818,42.786988],[0.244548,42.787023],[0.243104,42.787418],[0.242753,42.78747],[0.242465,42.787461],[0.242237,42.787419],[0.241943,42.787389],[0.241275,42.787344],[0.241131,42.787351],[0.240956,42.787383],[0.240824,42.787435],[0.240682,42.787538],[0.240426,42.787789],[0.240282,42.7879],[0.240148,42.787976],[0.239648,42.788187],[0.239447,42.788257],[0.239305,42.78828],[0.238944,42.7883],[0.238738,42.788339],[0.238588,42.788395],[0.237903,42.788787],[0.237686,42.788867],[0.237449,42.788929],[0.237396,42.788944],[0.237201,42.788992],[0.236933,42.789029],[0.236358,42.789089],[0.235996,42.789071],[0.235801,42.789085],[0.235646,42.789133],[0.235287,42.789313],[0.23503,42.789336],[0.234772,42.789347],[0.234378,42.789396],[0.234249,42.789392],[0.233058,42.78914],[0.232686,42.789048],[0.232316,42.788998],[0.232019,42.788983],[0.231486,42.788993],[0.23123,42.789011],[0.230903,42.789079],[0.230699,42.789131],[0.230615,42.789166],[0.230493,42.789244],[0.230176,42.789579],[0.230056,42.789679],[0.229736,42.789863],[0.229047,42.790185],[0.228639,42.790407],[0.228488,42.79051],[0.228206,42.790772],[0.228154,42.790795],[0.228072,42.790796],[0.227846,42.790727],[0.227813,42.790675],[0.227778,42.790508],[0.227711,42.790422],[0.227664,42.790394],[0.227552,42.790368],[0.227368,42.790352],[0.226546,42.790342],[0.226361,42.790316],[0.226046,42.790226],[0.22554,42.790049],[0.225235,42.789919],[0.224804,42.789695],[0.224723,42.789669],[0.22411,42.78951],[0.223139,42.789219],[0.222588,42.789016],[0.222416,42.788979],[0.222231,42.788999],[0.221919,42.789102],[0.221582,42.789122],[0.221422,42.789111],[0.221243,42.789065],[0.220756,42.788718],[0.220594,42.788675],[0.22018,42.788635],[0.219949,42.788549],[0.219436,42.788205],[0.219288,42.788124],[0.218851,42.787954],[0.218511,42.787884],[0.217066,42.787712],[0.216686,42.78764],[0.216529,42.787602],[0.216415,42.787551],[0.21632,42.787453],[0.216268,42.787318],[0.216208,42.787165],[0.215954,42.786915],[0.215738,42.786787],[0.215114,42.786528],[0.214876,42.786478],[0.214658,42.786472],[0.21448,42.786469],[0.214256,42.786442],[0.213837,42.786405],[0.213717,42.786409],[0.213084,42.786482],[0.212785,42.786488],[0.21268,42.786473],[0.212513,42.786395],[0.211928,42.785876],[0.211672,42.785752],[0.211519,42.785614],[0.211489,42.785488],[0.211474,42.785262],[0.21148,42.784968],[0.211484,42.784754],[0.211445,42.784615],[0.21138,42.784526],[0.211294,42.784456],[0.211139,42.784393],[0.210853,42.78434],[0.210525,42.784299],[0.210142,42.784289],[0.209248,42.784275],[0.208967,42.784213],[0.208879,42.784176],[0.208536,42.78395],[0.208426,42.783873],[0.208298,42.783809],[0.208094,42.783761],[0.207784,42.783727],[0.207538,42.78372],[0.207191,42.783789],[0.206744,42.783806],[0.206625,42.783798],[0.206531,42.783746],[0.206411,42.783588],[0.206231,42.783427],[0.205999,42.783312],[0.205792,42.783161],[0.205401,42.782822],[0.205317,42.78276],[0.205033,42.782521],[0.204926,42.782468],[0.204669,42.782445],[0.204078,42.782479],[0.203742,42.78247],[0.203501,42.782434],[0.203389,42.782402],[0.203312,42.78236],[0.203304,42.782312],[0.203314,42.782233],[0.203361,42.782189],[0.203431,42.782159],[0.204378,42.781998],[0.204743,42.781965],[0.204844,42.781936],[0.204905,42.78189],[0.20491,42.781822],[0.204877,42.781777],[0.20477,42.781742],[0.204397,42.78179],[0.204169,42.781777],[0.203812,42.781732],[0.203252,42.781725],[0.202249,42.781752],[0.201687,42.781673],[0.201079,42.781648],[0.200826,42.781621],[0.199915,42.781395],[0.199703,42.78134],[0.199326,42.781286],[0.1992,42.781235],[0.199019,42.781114],[0.198704,42.780869],[0.198383,42.78064],[0.198027,42.780454],[0.197712,42.780311],[0.197653,42.780296],[0.197234,42.780259],[0.19652,42.780172],[0.196222,42.780177],[0.195901,42.780213],[0.195504,42.780224],[0.195064,42.780197],[0.194848,42.780162],[0.194557,42.780068],[0.194178,42.779921],[0.194018,42.780081],[0.193903,42.780599],[0.193956,42.780694],[0.194074,42.780778],[0.194139,42.780922],[0.194111,42.781026],[0.193992,42.781146],[0.19389,42.781179],[0.193752,42.781198],[0.193122,42.781207],[0.192635,42.781291],[0.192533,42.781307],[0.191968,42.781385],[0.191597,42.781566],[0.191467,42.781618],[0.191064,42.781694],[0.190599,42.781729],[0.189379,42.781746],[0.189177,42.781766],[0.189053,42.781781],[0.188953,42.781807],[0.188722,42.781911],[0.188356,42.782183],[0.187939,42.78241],[0.187893,42.782456],[0.18781,42.782653],[0.187741,42.782734],[0.187279,42.783017],[0.187192,42.783085],[0.186882,42.783429],[0.186805,42.783516],[0.18673,42.783557],[0.185942,42.783789],[0.185623,42.783902],[0.185567,42.783875],[0.185314,42.783632],[0.185279,42.783578],[0.185284,42.783515],[0.185361,42.783364],[0.186031,42.782696],[0.186137,42.782499],[0.186184,42.782338],[0.186163,42.782131],[0.186092,42.781897],[0.186081,42.781737],[0.186107,42.781585],[0.186155,42.781428],[0.186242,42.781242],[0.186453,42.78085],[0.186466,42.780736],[0.186414,42.78062],[0.185867,42.780152],[0.18523,42.779702],[0.184629,42.779214],[0.184521,42.779087],[0.184458,42.778941],[0.184387,42.778589],[0.184347,42.778544],[0.184226,42.778497],[0.184165,42.778506],[0.184055,42.778556],[0.184018,42.778635],[0.184044,42.778736],[0.184148,42.778866],[0.184354,42.779315],[0.184509,42.779564],[0.185164,42.780392],[0.185258,42.780533],[0.185271,42.780652],[0.185247,42.780711],[0.185169,42.780838],[0.184822,42.781228],[0.18446,42.781703],[0.184139,42.782033],[0.184005,42.782123],[0.183841,42.782219],[0.183627,42.782307],[0.183139,42.782491],[0.182061,42.782838],[0.181909,42.782916],[0.181601,42.783137],[0.181199,42.783453],[0.181067,42.783547],[0.180903,42.783632],[0.180601,42.783743],[0.18033,42.783814],[0.179738,42.784053],[0.179148,42.784271],[0.178756,42.784376],[0.178276,42.78446],[0.177868,42.784476],[0.177552,42.784512],[0.177073,42.7847],[0.176642,42.784826],[0.176432,42.784921],[0.176104,42.785105],[0.175996,42.785145],[0.175859,42.785179],[0.175018,42.785312],[0.174507,42.785411],[0.174363,42.785465],[0.174285,42.785468],[0.174198,42.785426],[0.174177,42.785367],[0.174231,42.785311],[0.174325,42.785293],[0.174481,42.785302],[0.174663,42.785286],[0.174909,42.78524],[0.175252,42.785115],[0.175451,42.785021],[0.176223,42.784553],[0.176374,42.784437],[0.176391,42.784394],[0.176376,42.784355],[0.176342,42.784316],[0.176294,42.784296],[0.176238,42.784287],[0.176118,42.784316],[0.175928,42.784442],[0.17574,42.784518],[0.175181,42.784677],[0.174601,42.784937],[0.174388,42.78498],[0.174114,42.78501],[0.173548,42.785002],[0.173082,42.785091],[0.172363,42.785146],[0.172309,42.785119],[0.172285,42.785055],[0.172318,42.78501],[0.172367,42.784971],[0.172428,42.784959],[0.172908,42.784978],[0.173075,42.784959],[0.173243,42.784897],[0.173949,42.784424],[0.17415,42.784337],[0.176193,42.783656],[0.176245,42.783631],[0.176296,42.78357],[0.1763,42.78354],[0.176257,42.783477],[0.176151,42.783465],[0.176044,42.783498],[0.175855,42.783624],[0.175721,42.783682],[0.174414,42.78393],[0.172463,42.784146],[0.172203,42.784202],[0.172063,42.784217],[0.171971,42.784195],[0.171938,42.784136],[0.171955,42.784082],[0.171998,42.784038],[0.172091,42.78402],[0.172476,42.784],[0.172648,42.783969],[0.174131,42.783569],[0.174276,42.783511],[0.174316,42.783468],[0.174327,42.783421],[0.174295,42.783374],[0.174265,42.783343],[0.174215,42.783331],[0.174132,42.783336],[0.173805,42.783492],[0.173578,42.783562],[0.173379,42.783595],[0.173047,42.783594],[0.172402,42.783517],[0.17181,42.783468],[0.171561,42.783419],[0.171156,42.783283],[0.171033,42.783278],[0.170845,42.783303],[0.170752,42.783337],[0.170313,42.783555],[0.17011,42.783618],[0.169854,42.783639],[0.169384,42.783642],[0.168318,42.783823],[0.167683,42.783907],[0.167537,42.783906],[0.167446,42.783881],[0.167415,42.783851],[0.167412,42.783751],[0.167442,42.78371],[0.167508,42.783669],[0.168075,42.783622],[0.168344,42.783586],[0.168543,42.783546],[0.168615,42.783501],[0.168643,42.783451],[0.168638,42.783384],[0.168563,42.783319],[0.16843,42.783276],[0.168246,42.783273],[0.167457,42.783374],[0.167243,42.783384],[0.165544,42.783169],[0.165185,42.783148],[0.165054,42.783157],[0.164914,42.783198],[0.164887,42.783226],[0.164868,42.783298],[0.16491,42.783569],[0.164855,42.783656],[0.16475,42.783695],[0.164169,42.78379],[0.163338,42.784168],[0.163241,42.784166],[0.163158,42.784116],[0.163134,42.784071],[0.163155,42.783995],[0.163214,42.783932],[0.163408,42.78381],[0.163653,42.783684],[0.164296,42.783446],[0.164356,42.78339],[0.16437,42.783329],[0.164346,42.78326],[0.164293,42.783207],[0.164211,42.783185],[0.164116,42.783197],[0.163837,42.783318],[0.16366,42.783352],[0.163029,42.783423],[0.162877,42.783476],[0.16275,42.783576],[0.162685,42.783657],[0.162504,42.784027],[0.16244,42.784218],[0.162424,42.784337],[0.162468,42.784601],[0.162433,42.784716],[0.162327,42.784902],[0.162309,42.784996],[0.16234,42.785262],[0.162331,42.785316],[0.162298,42.785354],[0.162246,42.785378],[0.162186,42.785384],[0.162127,42.78537],[0.162082,42.78534],[0.162059,42.785298],[0.162083,42.785033],[0.162079,42.784909],[0.162047,42.784798],[0.161797,42.784456],[0.161672,42.784062],[0.16162,42.783981],[0.161548,42.783947],[0.161471,42.783942],[0.16142,42.783972],[0.161391,42.78403],[0.161393,42.784117],[0.161561,42.784792],[0.161536,42.784942],[0.161608,42.784993],[0.161594,42.785066],[0.161555,42.785091],[0.161515,42.7851],[0.161472,42.785098],[0.161425,42.785077],[0.161397,42.785042],[0.161395,42.785001],[0.161194,42.784949],[0.160991,42.784861],[0.160833,42.784751],[0.160758,42.784632],[0.160771,42.784545],[0.160826,42.784439],[0.160845,42.784279],[0.160805,42.784236],[0.160737,42.784214],[0.160651,42.78421],[0.160571,42.784233],[0.160359,42.784425],[0.16026,42.784476],[0.160142,42.784503],[0.159774,42.784524],[0.159548,42.784603],[0.15944,42.784691],[0.159489,42.784742],[0.15949,42.784774],[0.159448,42.784828],[0.159409,42.784843],[0.159366,42.784846],[0.159313,42.784832],[0.159275,42.784803],[0.159261,42.784763],[0.159273,42.784724],[0.159308,42.784693],[0.159374,42.784677],[0.159427,42.784688]],"type":"LineString"}}],"metadata":{"attribution":"openrouteservice.org | OpenStreetMap contributors","service":"routing","timestamp":1765208138773,"query":{"coordinates":[[0.321769,42.818085],[0.159431,42.784677]],"profile":"driving-car","profileName":"driving-car","format":"geojson"},"engine":{"version":"9.5.0","build_date":"2025-10-31T12:33:09Z","graph_date":"2025-12-07T11:20:28Z","osm_date":"2025-12-01T01:00:00Z"}}}