{"type":"FeatureCollection","bbox":[1.607264,42.843813,1.817517,42.972451],"features":[{"bbox":[1.607264,42.843813,1.817517,42.972451],"type":"Feature","properties":{"segments":[{"distance":40977.9,"duration":3109.5,"steps":[{"distance":321.1,"duration":115.6,"type":11,"instruction":"Head north on Place Marcel Boyer","name":"Place Marcel Boyer","way_points":[0,19]},{"distance":958.9,"duration":85.8,"type":1,"instruction":"Turn right onto Avenue du Général Leclerc, D 919","name":"Avenue du Général Leclerc, D 919","way_points":[19,38]},{"distance":169.8,"duration":50.0,"type":7,"instruction":"Enter the roundabout and take the 3rd exit onto Cours Gabriel Fauré, D 117","name":"Cours Gabriel Fauré, D 117","exit_number":3,"way_points":[38,49]},{"distance":1414.6,"duration":132.7,"type":5,"instruction":"Turn slight right onto Cours Bouychères, D 117","name":"Cours Bouychères, D 117","way_points":[49,67]},{"distance":8757.7,"duration":676.0,"type":7,"instruction":"Enter the roundabout and take the 2nd exit onto Avenue de Roquefixade, D 9A","name":"Avenue de Roquefixade, D 9A","exit_number":2,"way_points":[67,318]},{"distance":1160.3,"duration":95.4,"type":1,"instruction":"Turn right onto Rue de Saint-Cyrac, D 63","name":"Rue de Saint-Cyrac, D 63","way_points":[318,363]},{"distance":8843.0,"duration":524.5,"type":0,"instruction":"Turn left onto D 117","name":"D 117","way_points":[363,469]},{"distance":12.6,"duration":0.8,"type":12,"instruction":"Keep left","name":"-","way_points":[469,470]},{"distance":7.8,"duration":1.4,"type":3,"instruction":"Turn sharp right","name":"-","way_points":[470,471]},{"distance":23.9,"duration":5.7,"type":0,"instruction":"Turn left","name":"-","way_points":[471,472]},{"distance":1398.4,"duration":94.9,"type":6,"instruction":"Continue straight onto Route de la Paillasse, D 509","name":"Route de la Paillasse, D 509","way_points":[472,494]},{"distance":3773.0,"duration":293.2,"type":1,"instruction":"Turn right onto Avenue du 11 Novembre, D 9","name":"Avenue du 11 Novembre, D 9","way_points":[494,574]},{"distance":14135.1,"duration":1032.9,"type":1,"instruction":"Turn right onto D 909","name":"D 909","way_points":[574,1069]},{"distance":1.7,"duration":0.6,"type":1,"instruction":"Turn right","name":"-","way_points":[1069,1070]},{"distance":0.0,"duration":0.0,"type":10,"instruction":"Arrive at your destination, straight ahead","name":"-","way_points":[1070,1070]}]}],"way_points":[0,1070],"summary":{"distance":40977.9,"duration":3109.5},"name":"Skirail Les Monts d'Olmes"},"geometry":{"coordinates":[[1.607296,42.969803],[1.607288,42.969894],[1.607272,42.970121],[1.607327,42.970259],[1.607306,42.970593],[1.607336,42.970735],[1.607337,42.970886],[1.607308,42.971041],[1.607281,42.971193],[1.607269,42.971343],[1.607264,42.971496],[1.607282,42.97165],[1.607307,42.971805],[1.607312,42.971832],[1.607463,42.972009],[1.607584,42.972322],[1.60763,42.972368],[1.607697,42.972405],[1.60781,42.972434],[1.607953,42.972451],[1.607986,42.971904],[1.608004,42.971618],[1.60802,42.971346],[1.608039,42.97104],[1.608095,42.97022],[1.608253,42.968069],[1.608312,42.967855],[1.608456,42.967561],[1.608821,42.966981],[1.609087,42.966685],[1.609345,42.966448],[1.609567,42.966225],[1.610072,42.965585],[1.610398,42.965229],[1.610826,42.964815],[1.611015,42.96465],[1.611036,42.964556],[1.611024,42.964503],[1.61097,42.96443],[1.610487,42.964361],[1.610419,42.964306],[1.6104,42.964244],[1.610405,42.964174],[1.610439,42.964098],[1.610531,42.964041],[1.610623,42.964027],[1.6107,42.964035],[1.61128,42.964135],[1.611415,42.964136],[1.611586,42.964098],[1.612234,42.963492],[1.612779,42.962927],[1.612918,42.962677],[1.613047,42.962357],[1.613181,42.962167],[1.615067,42.960676],[1.615706,42.960166],[1.616102,42.95985],[1.616916,42.959202],[1.617588,42.958695],[1.617728,42.9586],[1.617895,42.958534],[1.619003,42.958176],[1.622141,42.95687],[1.622526,42.95665],[1.623619,42.955796],[1.623826,42.955637],[1.623925,42.955506],[1.623935,42.955424],[1.623967,42.955389],[1.624035,42.955356],[1.624116,42.95535],[1.62421,42.955383],[1.624243,42.955413],[1.624359,42.955445],[1.624506,42.955462],[1.624698,42.955395],[1.624887,42.95527],[1.624988,42.955163],[1.625025,42.955096],[1.625164,42.954728],[1.625274,42.954538],[1.625686,42.954005],[1.625724,42.953964],[1.626296,42.953249],[1.626522,42.953003],[1.627214,42.952313],[1.62783,42.951721],[1.628558,42.950846],[1.62917,42.95022],[1.629936,42.94945],[1.630081,42.949285],[1.630221,42.949082],[1.630339,42.948767],[1.63054,42.948066],[1.630619,42.947821],[1.63076,42.947421],[1.630973,42.946965],[1.63104,42.946822],[1.631333,42.94641],[1.63179,42.945588],[1.632136,42.945024],[1.632421,42.944643],[1.632875,42.944163],[1.63322,42.943839],[1.633998,42.943112],[1.634235,42.942946],[1.634445,42.942845],[1.635071,42.942611],[1.635322,42.942498],[1.635427,42.942434],[1.635635,42.942309],[1.635894,42.942123],[1.636379,42.941693],[1.637286,42.940902],[1.63742,42.94076],[1.637746,42.940284],[1.637932,42.940052],[1.638128,42.939857],[1.638157,42.939829],[1.639029,42.939096],[1.639192,42.938985],[1.639343,42.938918],[1.639773,42.938829],[1.63995,42.938775],[1.640104,42.938681],[1.640389,42.938393],[1.64046,42.938308],[1.64063,42.938146],[1.641178,42.93788],[1.641883,42.937667],[1.642527,42.937512],[1.642763,42.937419],[1.643596,42.936998],[1.643765,42.936893],[1.644117,42.936624],[1.644278,42.936523],[1.644457,42.93646],[1.644677,42.936422],[1.644939,42.936417],[1.646598,42.936542],[1.646782,42.936528],[1.648027,42.936212],[1.648238,42.936172],[1.648478,42.936145],[1.648842,42.93613],[1.649171,42.936152],[1.649369,42.936196],[1.649582,42.936314],[1.64965,42.936388],[1.649772,42.936576],[1.649895,42.936824],[1.649986,42.936877],[1.650091,42.936888],[1.650203,42.936856],[1.650292,42.936769],[1.650541,42.936361],[1.650672,42.93625],[1.65189,42.935806],[1.652059,42.93576],[1.652708,42.935729],[1.652895,42.935684],[1.653058,42.93562],[1.653301,42.935474],[1.653624,42.935219],[1.654074,42.9349],[1.654355,42.934745],[1.654612,42.934628],[1.65494,42.934511],[1.65536,42.934378],[1.655885,42.934262],[1.656044,42.9342],[1.656442,42.933902],[1.656689,42.933738],[1.656936,42.933599],[1.657086,42.933564],[1.657277,42.933543],[1.657606,42.933579],[1.657768,42.933627],[1.657876,42.933717],[1.657938,42.934245],[1.657952,42.934306],[1.658007,42.934343],[1.658087,42.934348],[1.658462,42.934256],[1.6589,42.9342],[1.659404,42.934224],[1.660085,42.934313],[1.660861,42.93444],[1.661521,42.934681],[1.661802,42.934727],[1.662132,42.934731],[1.662743,42.934776],[1.663206,42.934749],[1.663415,42.934761],[1.664035,42.934888],[1.664304,42.934985],[1.664399,42.935047],[1.664829,42.935438],[1.664946,42.935513],[1.665072,42.935558],[1.666337,42.935741],[1.666433,42.935785],[1.6665,42.935845],[1.66654,42.935923],[1.666545,42.93603],[1.666405,42.937299],[1.666413,42.937422],[1.666443,42.937516],[1.666531,42.937626],[1.666662,42.937738],[1.666989,42.937877],[1.66718,42.937915],[1.667361,42.937909],[1.667907,42.937837],[1.66811,42.937828],[1.668303,42.937838],[1.66847,42.937868],[1.668607,42.937917],[1.668755,42.938006],[1.669248,42.938402],[1.66935,42.938503],[1.669435,42.938637],[1.669721,42.939327],[1.669876,42.939654],[1.670014,42.939889],[1.670267,42.940292],[1.670422,42.940616],[1.670654,42.9413],[1.67084,42.941451],[1.671181,42.941625],[1.671611,42.941836],[1.671731,42.941859],[1.67286,42.941837],[1.673066,42.94183],[1.673409,42.941852],[1.673435,42.941854],[1.673618,42.941886],[1.674134,42.942067],[1.67432,42.942099],[1.674443,42.942105],[1.674628,42.942083],[1.674856,42.94202],[1.67517,42.941914],[1.675336,42.94188],[1.67549,42.94188],[1.676516,42.941997],[1.676776,42.942004],[1.677596,42.941984],[1.678595,42.942059],[1.679018,42.942041],[1.679476,42.941991],[1.679607,42.941991],[1.679793,42.942074],[1.680024,42.942279],[1.68017,42.94241],[1.680318,42.942497],[1.680458,42.942543],[1.680684,42.942603],[1.680813,42.942617],[1.68111,42.942614],[1.681525,42.942584],[1.681663,42.942592],[1.68195,42.942641],[1.682259,42.942716],[1.682611,42.942844],[1.682808,42.94295],[1.682949,42.943007],[1.683013,42.943031],[1.683227,42.943089],[1.684205,42.943236],[1.684485,42.943279],[1.685991,42.943509],[1.686906,42.943648],[1.687075,42.943655],[1.687385,42.943603],[1.688099,42.943367],[1.689627,42.943073],[1.689923,42.943059],[1.690821,42.94316],[1.691336,42.943189],[1.691725,42.943149],[1.69198,42.943092],[1.692436,42.942937],[1.693441,42.942628],[1.693939,42.942516],[1.694471,42.942459],[1.694625,42.942454],[1.694963,42.94249],[1.695387,42.942563],[1.69561,42.942578],[1.69584,42.942565],[1.69606,42.942525],[1.696401,42.942411],[1.696685,42.942244],[1.697286,42.941887],[1.697471,42.941798],[1.698043,42.941611],[1.698338,42.941459],[1.69871,42.941228],[1.698873,42.94116],[1.699068,42.941113],[1.699603,42.94103],[1.69985,42.941007],[1.700063,42.941014],[1.700263,42.941058],[1.700505,42.941144],[1.700929,42.941346],[1.701108,42.941411],[1.701337,42.941472],[1.701559,42.941506],[1.701791,42.941517],[1.70341,42.941445],[1.704313,42.941472],[1.704585,42.941449],[1.704851,42.941379],[1.705504,42.941047],[1.705678,42.940991],[1.705747,42.940949],[1.705675,42.940815],[1.705541,42.94067],[1.705148,42.940437],[1.705034,42.940312],[1.70498,42.940208],[1.704934,42.939965],[1.704857,42.93977],[1.704829,42.939711],[1.704738,42.939546],[1.704673,42.939378],[1.704694,42.939314],[1.704971,42.939182],[1.705097,42.939094],[1.705157,42.939094],[1.705429,42.939061],[1.705652,42.93901],[1.70571,42.938978],[1.705806,42.938872],[1.705838,42.938771],[1.7058,42.938414],[1.705769,42.93831],[1.705471,42.938038],[1.705438,42.937991],[1.705443,42.937915],[1.705505,42.937857],[1.705652,42.937794],[1.706393,42.937613],[1.706455,42.937589],[1.706527,42.937534],[1.706549,42.937452],[1.706496,42.937145],[1.706522,42.93702],[1.706833,42.936562],[1.706957,42.936409],[1.707161,42.936272],[1.708277,42.935705],[1.708719,42.935495],[1.709134,42.935267],[1.710163,42.934557],[1.710384,42.934436],[1.710575,42.934294],[1.710747,42.934135],[1.710937,42.933819],[1.711213,42.933512],[1.711257,42.933396],[1.711821,42.933534],[1.71251,42.933649],[1.713134,42.93372],[1.713787,42.933741],[1.714515,42.933722],[1.717317,42.933457],[1.718132,42.933378],[1.723582,42.93285],[1.724679,42.932743],[1.725493,42.932665],[1.729997,42.932218],[1.730493,42.932128],[1.730894,42.932035],[1.73139,42.931852],[1.733491,42.930819],[1.737829,42.928631],[1.738787,42.928165],[1.739012,42.928058],[1.739848,42.92777],[1.741304,42.927325],[1.743108,42.926764],[1.74352,42.926589],[1.744535,42.926002],[1.745366,42.925659],[1.748047,42.924796],[1.749617,42.92429],[1.749992,42.924166],[1.750406,42.923998],[1.750791,42.923757],[1.751019,42.923558],[1.751205,42.923327],[1.751521,42.92265],[1.752005,42.921377],[1.752172,42.921061],[1.752328,42.920887],[1.752504,42.920747],[1.752833,42.920563],[1.753322,42.920396],[1.754371,42.920234],[1.75501,42.920095],[1.755427,42.919949],[1.755827,42.919756],[1.756084,42.91958],[1.75651,42.91919],[1.757541,42.917863],[1.758004,42.917182],[1.758068,42.917088],[1.758147,42.916945],[1.758156,42.916854],[1.758131,42.916738],[1.75808,42.916493],[1.758069,42.916437],[1.758082,42.916309],[1.758126,42.91621],[1.758187,42.916119],[1.758304,42.916012],[1.759197,42.915441],[1.759456,42.915331],[1.759706,42.915272],[1.761475,42.915027],[1.762277,42.914982],[1.764003,42.915017],[1.76722,42.91498],[1.768076,42.915044],[1.76862,42.915044],[1.76912,42.914976],[1.769572,42.914845],[1.77066,42.914422],[1.77144,42.9141],[1.772245,42.913859],[1.773102,42.913769],[1.774247,42.913679],[1.774775,42.913541],[1.775316,42.913314],[1.775626,42.913209],[1.777019,42.912815],[1.777558,42.912646],[1.7781,42.91251],[1.778382,42.912478],[1.778742,42.912492],[1.779125,42.912542],[1.779887,42.912838],[1.780447,42.912953],[1.78132,42.91294],[1.781881,42.912775],[1.78217,42.91269],[1.78298,42.91237],[1.78341,42.912216],[1.783798,42.912109],[1.784327,42.912059],[1.784738,42.912063],[1.78641,42.912349],[1.787406,42.912533],[1.79032,42.913032],[1.791255,42.913231],[1.79206,42.913531],[1.794034,42.914629],[1.794294,42.914787],[1.795,42.915134],[1.795708,42.915356],[1.79745,42.915632],[1.798597,42.915859],[1.799499,42.915882],[1.805226,42.915673],[1.806697,42.915604],[1.807397,42.915581],[1.807551,42.915577],[1.807518,42.915511],[1.807658,42.915322],[1.808766,42.913497],[1.808751,42.913312],[1.80866,42.913147],[1.80822,42.912597],[1.80819,42.912409],[1.808216,42.912192],[1.808239,42.911482],[1.808299,42.911304],[1.808493,42.911072],[1.808944,42.910742],[1.809247,42.910614],[1.809619,42.910483],[1.810366,42.910324],[1.812803,42.909847],[1.813053,42.909767],[1.813287,42.909656],[1.813941,42.909276],[1.815414,42.908421],[1.816026,42.908078],[1.817467,42.907255],[1.817517,42.907095],[1.817499,42.906992],[1.817217,42.906854],[1.816977,42.906714],[1.815848,42.905975],[1.815056,42.905423],[1.814723,42.905141],[1.814377,42.904815],[1.813596,42.904059],[1.813444,42.903936],[1.813242,42.903832],[1.812923,42.903688],[1.81232,42.903547],[1.812162,42.903476],[1.811465,42.903099],[1.811343,42.903053],[1.810647,42.90291],[1.810472,42.902829],[1.810202,42.902693],[1.809707,42.902482],[1.808285,42.901978],[1.807599,42.901784],[1.80636,42.901506],[1.80594,42.901365],[1.804664,42.900789],[1.803734,42.900377],[1.8003,42.899337],[1.799474,42.899083],[1.797253,42.897977],[1.797039,42.897863],[1.796892,42.897763],[1.796249,42.897088],[1.796128,42.896962],[1.796079,42.89688],[1.79607,42.896821],[1.796162,42.896569],[1.796151,42.896471],[1.795571,42.89549],[1.795452,42.895385],[1.795139,42.895228],[1.794752,42.895065],[1.794467,42.894935],[1.794327,42.894854],[1.794234,42.894736],[1.793939,42.894135],[1.793855,42.893999],[1.79353,42.893516],[1.793222,42.893028],[1.792719,42.892436],[1.792576,42.892185],[1.792534,42.892055],[1.792457,42.891944],[1.792159,42.891693],[1.792015,42.89147],[1.791938,42.891213],[1.791864,42.890857],[1.791893,42.890578],[1.79198,42.890249],[1.792104,42.889899],[1.792312,42.889414],[1.792379,42.889096],[1.792506,42.888731],[1.792581,42.888609],[1.792844,42.888292],[1.793199,42.887806],[1.793269,42.88761],[1.793315,42.887346],[1.793425,42.887011],[1.793547,42.886787],[1.793805,42.886484],[1.793958,42.886341],[1.794076,42.886275],[1.794225,42.886224],[1.794453,42.886188],[1.794619,42.88619],[1.795278,42.88625],[1.795441,42.886242],[1.79564,42.886213],[1.796406,42.88601],[1.79669,42.885956],[1.796911,42.885929],[1.797954,42.885884],[1.797989,42.885827],[1.79806,42.885805],[1.798276,42.885805],[1.798774,42.885844],[1.798925,42.885831],[1.799073,42.885783],[1.79966,42.885444],[1.800166,42.884947],[1.800448,42.884744],[1.800558,42.884687],[1.800996,42.88457],[1.801086,42.88452],[1.801136,42.884472],[1.801168,42.884408],[1.801177,42.884332],[1.801136,42.884206],[1.80109,42.884155],[1.801004,42.884111],[1.800577,42.88408],[1.800185,42.883933],[1.800001,42.883826],[1.799863,42.883722],[1.799706,42.883553],[1.799481,42.883241],[1.799121,42.882931],[1.798748,42.88274],[1.7987,42.882659],[1.798707,42.882631],[1.798747,42.882592],[1.798835,42.882572],[1.799164,42.882691],[1.800307,42.883057],[1.800709,42.883252],[1.800967,42.883308],[1.801039,42.883311],[1.801123,42.883292],[1.801168,42.883258],[1.801172,42.883194],[1.801117,42.883119],[1.800911,42.883019],[1.800749,42.882889],[1.800537,42.882676],[1.800326,42.882525],[1.799942,42.882305],[1.799727,42.882138],[1.799575,42.88199],[1.799325,42.881664],[1.799269,42.881499],[1.799228,42.881286],[1.799202,42.880656],[1.799108,42.880009],[1.799044,42.879743],[1.798974,42.879573],[1.798794,42.87937],[1.798778,42.879302],[1.798834,42.879253],[1.798912,42.879233],[1.799002,42.879272],[1.799738,42.880142],[1.79991,42.880373],[1.799967,42.880475],[1.800079,42.881074],[1.800152,42.881195],[1.800291,42.881281],[1.800423,42.881318],[1.800605,42.881348],[1.801321,42.88133],[1.801431,42.881288],[1.801466,42.881221],[1.801434,42.881153],[1.80136,42.881113],[1.800931,42.881128],[1.800771,42.8811],[1.80068,42.881048],[1.800615,42.880972],[1.800616,42.880869],[1.800715,42.880671],[1.800731,42.880486],[1.800613,42.880174],[1.800186,42.879298],[1.800014,42.878675],[1.799757,42.878228],[1.799043,42.877474],[1.798853,42.877344],[1.798349,42.877088],[1.798063,42.876912],[1.797335,42.876404],[1.797064,42.876178],[1.796764,42.875884],[1.79652,42.875565],[1.79622,42.875229],[1.796164,42.875089],[1.796141,42.874901],[1.796098,42.874748],[1.796032,42.874692],[1.795915,42.87467],[1.795805,42.874662],[1.795653,42.874698],[1.795431,42.874802],[1.795229,42.874922],[1.795069,42.875094],[1.794586,42.875777],[1.794529,42.87588],[1.794489,42.87608],[1.794325,42.876522],[1.794199,42.876951],[1.794093,42.877438],[1.794091,42.878038],[1.794116,42.878187],[1.794265,42.878457],[1.794277,42.878553],[1.794248,42.878627],[1.793979,42.878912],[1.79381,42.879166],[1.793604,42.879374],[1.79347,42.879455],[1.793285,42.879505],[1.793084,42.879517],[1.792738,42.87951],[1.792435,42.879477],[1.792104,42.879403],[1.791642,42.879276],[1.791415,42.879178],[1.791051,42.878945],[1.79078,42.878818],[1.790549,42.878751],[1.790295,42.878727],[1.789994,42.878732],[1.789757,42.878761],[1.789544,42.878814],[1.789377,42.878913],[1.788662,42.879507],[1.788521,42.879642],[1.788406,42.879819],[1.788348,42.879962],[1.788313,42.880114],[1.788312,42.880267],[1.788285,42.880395],[1.788226,42.880479],[1.787914,42.880687],[1.787782,42.880791],[1.787684,42.8809],[1.787637,42.881012],[1.787582,42.881269],[1.787517,42.881418],[1.787365,42.881546],[1.787204,42.881604],[1.786976,42.881638],[1.786207,42.881676],[1.785555,42.881613],[1.785239,42.881603],[1.784686,42.881644],[1.783822,42.881682],[1.783556,42.881664],[1.783068,42.88157],[1.782698,42.881542],[1.782186,42.88156],[1.781829,42.881548],[1.780874,42.881382],[1.780033,42.881178],[1.779879,42.881089],[1.77829,42.879891],[1.777914,42.879644],[1.777649,42.879496],[1.777546,42.879256],[1.777476,42.878718],[1.777478,42.878474],[1.77744,42.877669],[1.777387,42.877446],[1.777281,42.877311],[1.777041,42.8771],[1.776097,42.876609],[1.775456,42.876234],[1.775199,42.876033],[1.77466,42.875553],[1.77448,42.875345],[1.774174,42.874854],[1.773989,42.874653],[1.773769,42.874521],[1.773552,42.874448],[1.772661,42.874234],[1.772522,42.874177],[1.772443,42.874091],[1.772315,42.873851],[1.771914,42.873612],[1.771836,42.873491],[1.771822,42.873322],[1.771836,42.872811],[1.771814,42.872501],[1.771781,42.872412],[1.771697,42.872346],[1.771483,42.872269],[1.771214,42.872207],[1.770998,42.872111],[1.770546,42.871867],[1.770502,42.871788],[1.770481,42.871648],[1.770476,42.871283],[1.770496,42.870985],[1.770529,42.870816],[1.770588,42.870667],[1.770704,42.87052],[1.771182,42.870013],[1.771862,42.869451],[1.771902,42.869325],[1.771852,42.869268],[1.771736,42.869245],[1.771371,42.869285],[1.77117,42.869281],[1.770904,42.869251],[1.770535,42.869186],[1.770215,42.869106],[1.769923,42.868998],[1.769644,42.868853],[1.769263,42.868591],[1.768857,42.868272],[1.768726,42.868105],[1.768579,42.867838],[1.768254,42.867538],[1.768179,42.867417],[1.768138,42.867282],[1.768164,42.867065],[1.768301,42.866686],[1.768305,42.866595],[1.768245,42.86653],[1.768158,42.866507],[1.768066,42.866508],[1.767935,42.86657],[1.767466,42.866887],[1.766872,42.867233],[1.766201,42.867598],[1.766055,42.867645],[1.765866,42.867664],[1.765656,42.867639],[1.765294,42.86751],[1.763778,42.866864],[1.763718,42.866813],[1.763681,42.866723],[1.763721,42.866598],[1.763972,42.866167],[1.764048,42.865868],[1.763991,42.865634],[1.763892,42.865483],[1.763854,42.865385],[1.763882,42.865279],[1.764141,42.865006],[1.764349,42.864715],[1.764595,42.864432],[1.764652,42.864291],[1.764623,42.864113],[1.76447,42.863945],[1.763994,42.863577],[1.763866,42.863521],[1.763767,42.86351],[1.763134,42.863682],[1.762957,42.863701],[1.762801,42.863672],[1.762705,42.863591],[1.762664,42.86353],[1.762675,42.863361],[1.762628,42.863259],[1.762535,42.863209],[1.762402,42.863218],[1.762116,42.863391],[1.761951,42.863434],[1.761796,42.863422],[1.761619,42.863346],[1.76139,42.863214],[1.761294,42.863208],[1.761189,42.863237],[1.760978,42.863395],[1.760841,42.863432],[1.76068,42.863416],[1.760489,42.863352],[1.760232,42.863236],[1.760033,42.863181],[1.759553,42.863161],[1.759262,42.863185],[1.758699,42.863331],[1.757841,42.863431],[1.757689,42.863407],[1.757452,42.863335],[1.757217,42.863188],[1.75671,42.862807],[1.756465,42.862567],[1.756337,42.862471],[1.75618,42.862443],[1.7559,42.862496],[1.755698,42.862502],[1.755576,42.862467],[1.755474,42.862389],[1.75527,42.862044],[1.755265,42.861864],[1.75531,42.861764],[1.755572,42.861593],[1.755602,42.861504],[1.755576,42.861391],[1.755515,42.861291],[1.755213,42.860961],[1.755016,42.860778],[1.754729,42.860596],[1.754542,42.860532],[1.754387,42.860511],[1.754268,42.860518],[1.754143,42.860572],[1.753946,42.86077],[1.753816,42.860962],[1.753731,42.861131],[1.75365,42.861226],[1.753488,42.861337],[1.753039,42.861568],[1.752923,42.861606],[1.752761,42.86163],[1.752582,42.861627],[1.752382,42.861589],[1.751794,42.861403],[1.75152,42.861272],[1.75124,42.86106],[1.750827,42.860675],[1.7507,42.860506],[1.750671,42.860278],[1.750691,42.860043],[1.750777,42.859657],[1.750907,42.859309],[1.751355,42.858383],[1.751507,42.858118],[1.751706,42.857837],[1.751996,42.857186],[1.752122,42.856957],[1.75275,42.855972],[1.752966,42.855711],[1.753722,42.854921],[1.754057,42.854614],[1.754386,42.854253],[1.755243,42.853218],[1.755506,42.85285],[1.75575,42.852367],[1.755914,42.851879],[1.756018,42.851729],[1.75619,42.85155],[1.75627,42.851389],[1.75627,42.851283],[1.756204,42.851121],[1.755938,42.850701],[1.755865,42.850384],[1.755833,42.850121],[1.755899,42.849314],[1.755964,42.848106],[1.755935,42.847719],[1.755886,42.847595],[1.755806,42.847528],[1.755672,42.847514],[1.755582,42.847533],[1.755216,42.847677],[1.754705,42.847797],[1.754532,42.847895],[1.754245,42.848153],[1.753879,42.848413],[1.753725,42.848617],[1.753379,42.849254],[1.753227,42.849438],[1.75282,42.849818],[1.752598,42.850164],[1.752517,42.850262],[1.752373,42.850353],[1.752159,42.850453],[1.751837,42.850579],[1.75167,42.850626],[1.751064,42.850721],[1.750852,42.850774],[1.750513,42.850901],[1.749919,42.85121],[1.749777,42.851246],[1.749661,42.851249],[1.749562,42.851221],[1.749462,42.851131],[1.749428,42.851027],[1.749419,42.850827],[1.749373,42.850766],[1.749262,42.850724],[1.748934,42.850677],[1.748684,42.850692],[1.748514,42.850759],[1.748284,42.850885],[1.748165,42.850923],[1.748032,42.850919],[1.747743,42.850815],[1.747612,42.850801],[1.747411,42.850819],[1.747157,42.850896],[1.746969,42.850914],[1.746824,42.850911],[1.746646,42.85087],[1.746443,42.850773],[1.745726,42.850106],[1.74541,42.849918],[1.744935,42.849743],[1.744863,42.849706],[1.744832,42.849669],[1.744863,42.849601],[1.744919,42.849566],[1.745015,42.849574],[1.746269,42.849949],[1.746585,42.849997],[1.746817,42.85],[1.747108,42.849962],[1.747332,42.849893],[1.747784,42.84958],[1.74792,42.849516],[1.748451,42.849367],[1.74857,42.849287],[1.74863,42.849213],[1.748682,42.849075],[1.748716,42.848859],[1.748531,42.848406],[1.74858,42.84831],[1.748706,42.84826],[1.749091,42.848242],[1.749331,42.848204],[1.749722,42.848069],[1.749949,42.847966],[1.7501,42.847834],[1.750204,42.847678],[1.750327,42.847317],[1.75042,42.846962],[1.750437,42.846671],[1.750344,42.846235],[1.750398,42.845945],[1.750407,42.84573],[1.750458,42.845488],[1.750531,42.845354],[1.750671,42.845177],[1.750682,42.84509],[1.750635,42.845055],[1.750561,42.845042],[1.750456,42.84508],[1.750207,42.845358],[1.750099,42.845423],[1.749916,42.845502],[1.749618,42.845589],[1.749449,42.8456],[1.749238,42.845576],[1.748902,42.845504],[1.748717,42.845504],[1.748586,42.845542],[1.748505,42.845634],[1.74849,42.845748],[1.74854,42.846178],[1.7485,42.846276],[1.748415,42.84634],[1.748323,42.846358],[1.748226,42.846336],[1.746738,42.845612],[1.746427,42.845513],[1.746096,42.845446],[1.7458,42.845429],[1.745615,42.845462],[1.745483,42.845525],[1.745365,42.845644],[1.74522,42.84583],[1.745061,42.845981],[1.744849,42.846117],[1.744558,42.846259],[1.744333,42.846331],[1.744168,42.846361],[1.743656,42.84641],[1.743192,42.846481],[1.74274,42.84653],[1.742485,42.84653],[1.742313,42.846488],[1.742213,42.846446],[1.741976,42.846273],[1.741903,42.846126],[1.741926,42.845978],[1.742058,42.845805],[1.742126,42.845638],[1.742167,42.845447],[1.742224,42.845307],[1.742351,42.845168],[1.742513,42.845095],[1.742746,42.845051],[1.743,42.845051],[1.743337,42.84515],[1.743506,42.845176],[1.743675,42.845168],[1.743822,42.845116],[1.744013,42.844988],[1.744147,42.844857],[1.74419,42.844762],[1.74421,42.844565],[1.744191,42.844335],[1.744195,42.844177],[1.744241,42.843994],[1.74432,42.84387],[1.744384,42.843826],[1.744375,42.843813]],"type":"LineString"}}],"metadata":{"attribution":"openrouteservice.org | OpenStreetMap contributors","service":"routing","timestamp":1765207620657,"query":{"coordinates":[[1.606922,42.969785],[1.744385,42.84381]],"profile":"driving-car","profileName":"driving-car","format":"geojson"},"engine":{"version":"9.5.0","build_date":"2025-10-31T12:33:09Z","graph_date":"2025-12-07T11:20:28Z","osm_date":"2025-12-01T01:00:00Z"}}}