{"type":"FeatureCollection","bbox":[0.650681,42.910418,0.76969,42.922788],"features":[{"bbox":[0.650681,42.910418,0.76969,42.922788],"type":"Feature","properties":{"segments":[{"distance":15358.4,"duration":1076.1,"steps":[{"distance":56.5,"duration":13.6,"type":11,"instruction":"Head southeast","name":"-","way_points":[0,2]},{"distance":126.0,"duration":30.2,"type":1,"instruction":"Turn right onto D 44d","name":"D 44d","way_points":[2,4]},{"distance":3903.0,"duration":279.4,"type":0,"instruction":"Turn left onto Rue Jean Jaurès, D 44","name":"Rue Jean Jaurès, D 44","way_points":[4,90]},{"distance":9695.1,"duration":622.6,"type":0,"instruction":"Turn left onto D 44E","name":"D 44E","way_points":[90,481]},{"distance":1577.7,"duration":130.4,"type":1,"instruction":"Turn right onto D 44 J","name":"D 44 J","way_points":[481,531]},{"distance":0.0,"duration":0.0,"type":10,"instruction":"Arrive at D 44 J, on the right","name":"-","way_points":[531,531]}]}],"way_points":[0,531],"summary":{"distance":15358.4,"duration":1076.1}, "name":"VALI - Ligne 3 - Marignac Gare - Le Mourtis"},"geometry":{"coordinates":[[0.650737,42.915228],[0.651051,42.915096],[0.651318,42.914953],[0.650701,42.91399],[0.650681,42.913923],[0.650987,42.913875],[0.651204,42.913848],[0.651705,42.913782],[0.653694,42.913474],[0.653807,42.913458],[0.654112,42.913414],[0.654727,42.913325],[0.655072,42.913299],[0.655417,42.913299],[0.656832,42.913379],[0.657127,42.913378],[0.657692,42.913338],[0.65798,42.913333],[0.658079,42.913336],[0.658265,42.913362],[0.658572,42.913444],[0.658818,42.913537],[0.65892,42.913581],[0.65899,42.913608],[0.659114,42.913665],[0.659348,42.913746],[0.659693,42.91383],[0.662493,42.914475],[0.66316,42.914626],[0.663983,42.914785],[0.664256,42.914821],[0.664444,42.914824],[0.664948,42.9148],[0.66529,42.914831],[0.666887,42.915178],[0.66709,42.915196],[0.667289,42.91518],[0.667708,42.915087],[0.66791,42.915057],[0.668112,42.91507],[0.668267,42.915118],[0.668438,42.915202],[0.669186,42.915754],[0.669458,42.915908],[0.669752,42.916002],[0.671096,42.916339],[0.672143,42.916667],[0.672488,42.916735],[0.672826,42.91678],[0.673117,42.916787],[0.673399,42.916767],[0.673816,42.916697],[0.674044,42.916687],[0.674289,42.916725],[0.674927,42.916933],[0.675259,42.917],[0.675595,42.917009],[0.67641,42.916958],[0.676743,42.916984],[0.678726,42.917218],[0.681814,42.917527],[0.682186,42.917546],[0.68265,42.917534],[0.684615,42.917365],[0.68499,42.917338],[0.68561,42.91722],[0.686259,42.916946],[0.686469,42.916875],[0.687009,42.916761],[0.687669,42.916683],[0.688593,42.916721],[0.688775,42.916708],[0.688951,42.916674],[0.689483,42.916466],[0.690511,42.915963],[0.691095,42.915648],[0.691457,42.915494],[0.691911,42.915337],[0.691983,42.91529],[0.692505,42.91494],[0.692762,42.914721],[0.692932,42.914486],[0.693019,42.914261],[0.693039,42.914055],[0.693016,42.91393],[0.692943,42.913746],[0.692788,42.913422],[0.692726,42.913341],[0.692353,42.912997],[0.692043,42.912688],[0.69187,42.912482],[0.692026,42.912438],[0.692429,42.912316],[0.692493,42.912296],[0.69278,42.912207],[0.694535,42.911656],[0.695278,42.911417],[0.695327,42.911403],[0.69546,42.911367],[0.695597,42.911329],[0.695776,42.911291],[0.695952,42.911285],[0.696101,42.911308],[0.696568,42.911442],[0.696705,42.911464],[0.696979,42.911476],[0.697258,42.911443],[0.697405,42.911407],[0.698017,42.911174],[0.698295,42.911116],[0.698484,42.911104],[0.698717,42.91109],[0.698907,42.91106],[0.699315,42.910929],[0.69946,42.910898],[0.699875,42.91091],[0.70014,42.910897],[0.700704,42.910738],[0.700938,42.91066],[0.701296,42.910469],[0.701359,42.910449],[0.701544,42.910418],[0.701891,42.910424],[0.702064,42.910449],[0.702358,42.91054],[0.702862,42.910608],[0.703107,42.910664],[0.703297,42.910747],[0.703578,42.9109],[0.703819,42.910971],[0.705679,42.911166],[0.705979,42.911236],[0.706147,42.911294],[0.706375,42.911402],[0.706935,42.911692],[0.707109,42.911757],[0.707938,42.911946],[0.708134,42.912039],[0.708189,42.912086],[0.708227,42.912147],[0.70835,42.912427],[0.708424,42.91254],[0.708483,42.912588],[0.708606,42.912638],[0.708767,42.912639],[0.709393,42.912482],[0.709702,42.912456],[0.70983,42.912459],[0.710951,42.91262],[0.711185,42.912676],[0.711495,42.912885],[0.712239,42.913544],[0.712544,42.913742],[0.712985,42.913961],[0.713124,42.914045],[0.713226,42.914132],[0.713296,42.914221],[0.713609,42.914757],[0.713786,42.915143],[0.713929,42.915413],[0.714423,42.915982],[0.714606,42.916132],[0.71482,42.916203],[0.715368,42.916286],[0.715528,42.916323],[0.716185,42.916592],[0.717471,42.917114],[0.717637,42.917198],[0.717752,42.917279],[0.717833,42.917358],[0.717943,42.917517],[0.718054,42.91802],[0.718067,42.918219],[0.71805,42.918306],[0.717899,42.918631],[0.717909,42.91879],[0.718007,42.919254],[0.718093,42.919427],[0.718296,42.919749],[0.718478,42.919964],[0.718666,42.920113],[0.719127,42.920375],[0.719942,42.920757],[0.720238,42.920833],[0.720553,42.920845],[0.720688,42.92083],[0.720833,42.920795],[0.720983,42.920742],[0.721096,42.92068],[0.7216,42.920285],[0.721697,42.920267],[0.721766,42.920279],[0.721825,42.920314],[0.721856,42.920373],[0.721849,42.920693],[0.721786,42.921026],[0.721707,42.921255],[0.72161,42.921458],[0.721394,42.921751],[0.721174,42.922014],[0.720978,42.922164],[0.720868,42.9222],[0.720775,42.922212],[0.720329,42.922219],[0.720159,42.922269],[0.720065,42.922327],[0.720008,42.922386],[0.719949,42.922527],[0.720008,42.922641],[0.720053,42.922679],[0.720194,42.922718],[0.720418,42.922722],[0.720934,42.922788],[0.721151,42.922786],[0.721291,42.922739],[0.721598,42.922507],[0.721953,42.922269],[0.72211,42.922129],[0.722246,42.921972],[0.722491,42.921769],[0.722608,42.921697],[0.722716,42.921662],[0.722933,42.921628],[0.723011,42.921602],[0.723081,42.921561],[0.723353,42.921311],[0.723443,42.921254],[0.723754,42.921149],[0.723847,42.921098],[0.723937,42.921019],[0.724259,42.920585],[0.724542,42.92027],[0.72493,42.919867],[0.725024,42.919746],[0.725203,42.919597],[0.725612,42.919385],[0.726147,42.919161],[0.72646,42.919101],[0.726895,42.919074],[0.727353,42.919101],[0.727616,42.919084],[0.727803,42.919032],[0.729038,42.918609],[0.729448,42.918444],[0.729596,42.918404],[0.730118,42.918338],[0.730884,42.918163],[0.732546,42.917884],[0.732667,42.91785],[0.732879,42.917732],[0.733029,42.917657],[0.73318,42.917615],[0.733726,42.917552],[0.73396,42.917508],[0.734917,42.917258],[0.736354,42.917014],[0.736477,42.916975],[0.736568,42.916929],[0.73688,42.916683],[0.736952,42.916645],[0.737021,42.916637],[0.737167,42.916647],[0.737423,42.916735],[0.738007,42.917049],[0.738428,42.917186],[0.738604,42.917198],[0.738678,42.917178],[0.738794,42.9171],[0.738857,42.916959],[0.73885,42.916768],[0.738719,42.916408],[0.738714,42.916325],[0.738739,42.916207],[0.738853,42.916096],[0.738933,42.916045],[0.739403,42.91584],[0.739679,42.91575],[0.739942,42.915702],[0.740063,42.915709],[0.740336,42.915777],[0.740981,42.915888],[0.741238,42.915899],[0.741332,42.915884],[0.741495,42.915812],[0.741544,42.915769],[0.741648,42.915553],[0.741773,42.915458],[0.742371,42.915244],[0.742708,42.915168],[0.74341,42.915055],[0.744217,42.915012],[0.74434,42.914993],[0.744609,42.914921],[0.74486,42.914883],[0.745175,42.914902],[0.745449,42.914898],[0.745598,42.914911],[0.745667,42.91495],[0.745676,42.915015],[0.745619,42.915066],[0.74525,42.915075],[0.745104,42.915105],[0.744874,42.915182],[0.744735,42.915265],[0.744571,42.915336],[0.744065,42.915467],[0.743863,42.915486],[0.743797,42.915519],[0.743783,42.915574],[0.743796,42.915602],[0.743868,42.915636],[0.744305,42.915569],[0.744852,42.915585],[0.745257,42.91553],[0.745564,42.915548],[0.746128,42.915623],[0.74628,42.915599],[0.746545,42.915493],[0.746705,42.915457],[0.747145,42.915444],[0.747614,42.915366],[0.748137,42.915354],[0.749195,42.915244],[0.749307,42.915247],[0.749729,42.915302],[0.750075,42.915278],[0.750189,42.915283],[0.750752,42.915387],[0.751079,42.91543],[0.751486,42.915404],[0.751701,42.915342],[0.751771,42.915269],[0.751791,42.914992],[0.751847,42.914793],[0.751996,42.914473],[0.75215,42.914066],[0.752229,42.913944],[0.752335,42.913826],[0.752452,42.913734],[0.752582,42.913662],[0.752743,42.913602],[0.753555,42.913411],[0.753817,42.913319],[0.753989,42.913237],[0.754075,42.913233],[0.754128,42.913273],[0.754121,42.913339],[0.75369,42.913605],[0.753135,42.914007],[0.753054,42.914079],[0.753034,42.914127],[0.753062,42.914189],[0.753102,42.914207],[0.753156,42.914206],[0.75338,42.914087],[0.753575,42.914045],[0.754062,42.914045],[0.754389,42.914019],[0.754671,42.913931],[0.755004,42.913715],[0.755121,42.91369],[0.755163,42.913703],[0.755212,42.913763],[0.755187,42.913839],[0.754941,42.914034],[0.754679,42.914344],[0.754475,42.914529],[0.754452,42.914569],[0.754457,42.914608],[0.754519,42.914658],[0.754615,42.914651],[0.754792,42.914508],[0.754975,42.914436],[0.755847,42.914289],[0.756137,42.914221],[0.756386,42.914132],[0.756592,42.914022],[0.756705,42.914002],[0.756758,42.914017],[0.756822,42.914078],[0.756805,42.914161],[0.756754,42.914218],[0.756442,42.914474],[0.756248,42.914604],[0.755907,42.914775],[0.755879,42.914811],[0.755891,42.914887],[0.755926,42.914913],[0.75602,42.914925],[0.756317,42.91486],[0.756779,42.914817],[0.756888,42.914791],[0.757147,42.914685],[0.75719,42.91468],[0.757233,42.914685],[0.75729,42.914722],[0.757306,42.914768],[0.757247,42.914855],[0.756734,42.915102],[0.756653,42.915162],[0.75659,42.91528],[0.756588,42.915346],[0.756612,42.915419],[0.756656,42.915481],[0.756731,42.915546],[0.757194,42.915847],[0.757332,42.915957],[0.757524,42.916162],[0.757578,42.916261],[0.757645,42.916463],[0.757651,42.916551],[0.757626,42.916703],[0.757547,42.916819],[0.757438,42.916867],[0.757303,42.916861],[0.756983,42.916808],[0.756223,42.916798],[0.756103,42.916831],[0.756094,42.916896],[0.756151,42.916961],[0.756262,42.916989],[0.756611,42.916943],[0.756738,42.916947],[0.756956,42.916995],[0.757262,42.91713],[0.757867,42.917469],[0.757984,42.91751],[0.75811,42.917533],[0.758395,42.917537],[0.758466,42.917555],[0.758519,42.917589],[0.758551,42.917658],[0.758545,42.9177],[0.758513,42.91773],[0.758453,42.917752],[0.758258,42.917738],[0.757895,42.917676],[0.757595,42.917562],[0.757518,42.917572],[0.757476,42.917602],[0.757463,42.917674],[0.757489,42.917714],[0.757524,42.917741],[0.757594,42.917761],[0.757809,42.917802],[0.758515,42.917995],[0.758789,42.918044],[0.75905,42.918041],[0.759179,42.918094],[0.759217,42.91813],[0.759222,42.918167],[0.759197,42.918202],[0.75916,42.91822],[0.759045,42.918235],[0.75865,42.918165],[0.75847,42.918147],[0.758116,42.91815],[0.757889,42.918123],[0.757512,42.917984],[0.75698,42.917712],[0.756867,42.917669],[0.756787,42.917658],[0.756728,42.91767],[0.756689,42.917704],[0.756673,42.917741],[0.756716,42.917806],[0.756951,42.917876],[0.757235,42.918024],[0.757619,42.918337],[0.757847,42.918501],[0.757973,42.91856],[0.75828,42.918637],[0.758503,42.918731],[0.758609,42.918784],[0.758988,42.919042],[0.759067,42.919063],[0.759294,42.919066],[0.759938,42.918998],[0.760306,42.918998],[0.760783,42.919073],[0.761277,42.919192],[0.761534,42.91927],[0.761633,42.919049],[0.761682,42.918678],[0.761667,42.918424],[0.761502,42.917256],[0.761438,42.916554],[0.761467,42.91628],[0.761558,42.916007],[0.761696,42.915796],[0.761884,42.915621],[0.763391,42.914634],[0.763722,42.914429],[0.764119,42.914255],[0.764513,42.914159],[0.764862,42.914129],[0.765316,42.914157],[0.765988,42.914245],[0.766374,42.914282],[0.766591,42.914258],[0.766696,42.914207],[0.76679,42.914138],[0.766937,42.913948],[0.767147,42.91353],[0.7673,42.913375],[0.767432,42.91331],[0.76759,42.913268],[0.768033,42.913229],[0.768355,42.913172],[0.768687,42.913044],[0.769097,42.912888],[0.769408,42.912744],[0.769546,42.912658],[0.769675,42.912515],[0.76969,42.912453],[0.769646,42.912383],[0.769527,42.912349],[0.76922,42.912408],[0.769013,42.912416],[0.768857,42.912398],[0.76871,42.912362],[0.768418,42.912247],[0.768024,42.912059],[0.767525,42.911901],[0.76663,42.911705],[0.766354,42.911678],[0.765997,42.91167],[0.765855,42.911643],[0.765766,42.911602],[0.765681,42.911538],[0.765636,42.91145],[0.765631,42.911379]],"type":"LineString"}}],"metadata":{"attribution":"openrouteservice.org | OpenStreetMap contributors","service":"routing","timestamp":1765191497644,"query":{"coordinates":[[0.650739,42.91523],[0.765618,42.91138]],"profile":"driving-car","profileName":"driving-car","format":"geojson"},"engine":{"version":"9.5.0","build_date":"2025-10-31T12:33:09Z","graph_date":"2025-12-07T11:20:28Z","osm_date":"2025-12-01T01:00:00Z"}}}