{"type":"FeatureCollection","bbox":[0.47694,42.786063,0.596124,42.808837],"features":[{"bbox":[0.47694,42.786063,0.596124,42.808837],"type":"Feature","properties":{"segments":[{"distance":14964.2,"duration":1093.7,"steps":[{"distance":12.5,"duration":4.5,"type":11,"instruction":"Head north","name":"-","way_points":[0,1]},{"distance":17.4,"duration":6.3,"type":0,"instruction":"Turn left","name":"-","way_points":[1,2]},{"distance":280.7,"duration":46.0,"type":0,"instruction":"Turn left onto Avenue de Toulouse, D 125C","name":"Avenue de Toulouse, D 125C","way_points":[2,14]},{"distance":8914.5,"duration":695.2,"type":7,"instruction":"Enter the roundabout and take the 1st exit onto Cours de la Casseyde, D 618","name":"Cours de la Casseyde, D 618","exit_number":1,"way_points":[14,272]},{"distance":5659.4,"duration":322.6,"type":12,"instruction":"Keep left onto Route de Peyresourde, D 618","name":"Route de Peyresourde, D 618","way_points":[272,447]},{"distance":75.6,"duration":18.1,"type":0,"instruction":"Turn left","name":"-","way_points":[447,450]},{"distance":4.1,"duration":1.0,"type":2,"instruction":"Turn sharp left onto Rampe Marcel Arnauduc","name":"Rampe Marcel Arnauduc","way_points":[450,451]},{"distance":0.0,"duration":0.0,"type":10,"instruction":"Arrive at Rampe Marcel Arnauduc, on the right","name":"-","way_points":[451,451]}]}],"extras":{"roadaccessrestrictions":{"values":[[0,447,0],[447,450,4],[450,451,0]],"summary":[{"value":0.0,"distance":14888.6,"amount":99.49},{"value":4.0,"distance":75.6,"amount":0.51}]}},"warnings":[{"code":1,"message":"There may be restrictions on some roads"}],"way_points":[0,451],"summary":{"distance":14964.2,"duration":1093.7}, "name":"VALI Ligne 2 - Luchon - Les Agudes"},"geometry":{"coordinates":[[0.59611,42.797219],[0.596124,42.797331],[0.595912,42.797345],[0.595889,42.797201],[0.595846,42.796834],[0.595782,42.796617],[0.595749,42.796562],[0.59564,42.796425],[0.595517,42.796304],[0.595132,42.795931],[0.595063,42.795864],[0.594876,42.795667],[0.594805,42.795592],[0.594529,42.795303],[0.594377,42.795159],[0.594194,42.79506],[0.593998,42.795032],[0.593906,42.794993],[0.593758,42.794926],[0.593688,42.794877],[0.593133,42.794621],[0.592483,42.79423],[0.591731,42.793833],[0.591423,42.793741],[0.591172,42.793726],[0.590643,42.793774],[0.590351,42.793786],[0.590083,42.793774],[0.589006,42.793603],[0.588701,42.793565],[0.588483,42.793539],[0.588217,42.793532],[0.587795,42.793488],[0.587448,42.793458],[0.58725,42.793427],[0.586679,42.793375],[0.586514,42.793373],[0.586266,42.793402],[0.585983,42.793489],[0.585289,42.793737],[0.584675,42.793911],[0.58425,42.793981],[0.583709,42.794025],[0.58352,42.794055],[0.582998,42.794192],[0.582807,42.794227],[0.582613,42.794249],[0.582333,42.794258],[0.581205,42.794225],[0.580892,42.794241],[0.580393,42.794303],[0.580118,42.794356],[0.580012,42.794379],[0.579592,42.794473],[0.579272,42.794573],[0.579162,42.794639],[0.578899,42.794856],[0.578659,42.79501],[0.57746,42.795666],[0.577192,42.795758],[0.577048,42.795786],[0.576151,42.795861],[0.576024,42.79586],[0.575839,42.79583],[0.575648,42.795831],[0.574477,42.796108],[0.573592,42.796353],[0.572333,42.796551],[0.571986,42.796558],[0.571665,42.796527],[0.571316,42.796447],[0.570555,42.796217],[0.570394,42.796203],[0.570292,42.796213],[0.56924,42.79652],[0.568587,42.796742],[0.568242,42.796909],[0.567693,42.797237],[0.56746,42.797324],[0.566947,42.797481],[0.56686,42.797528],[0.566701,42.797668],[0.56664,42.797755],[0.566583,42.797904],[0.566619,42.798353],[0.566489,42.799026],[0.566316,42.799266],[0.565529,42.800168],[0.565441,42.8003],[0.565245,42.800719],[0.565115,42.800946],[0.564926,42.801194],[0.564542,42.801538],[0.563277,42.802508],[0.563176,42.802582],[0.562926,42.802772],[0.562697,42.802908],[0.562344,42.803066],[0.562115,42.803213],[0.562047,42.803282],[0.562006,42.803362],[0.561963,42.803544],[0.561981,42.803906],[0.561941,42.804078],[0.561875,42.804244],[0.561663,42.804649],[0.561245,42.805247],[0.561131,42.805437],[0.56109,42.805541],[0.561038,42.806052],[0.560987,42.806221],[0.560902,42.806296],[0.560857,42.80632],[0.560705,42.806348],[0.560529,42.80632],[0.560436,42.806269],[0.560358,42.8062],[0.560219,42.806015],[0.560132,42.805825],[0.560059,42.805491],[0.560033,42.805312],[0.560049,42.805138],[0.560137,42.804977],[0.56028,42.804802],[0.560277,42.804694],[0.560208,42.804622],[0.560133,42.804599],[0.560059,42.804596],[0.559987,42.804618],[0.559935,42.804656],[0.5599,42.804745],[0.559879,42.804956],[0.559853,42.805023],[0.559674,42.805282],[0.55964,42.805482],[0.559647,42.806005],[0.559702,42.806161],[0.559821,42.806332],[0.559857,42.806417],[0.559853,42.806506],[0.559826,42.806549],[0.559775,42.806587],[0.55968,42.806607],[0.55962,42.806603],[0.55951,42.806545],[0.559464,42.806492],[0.559439,42.806426],[0.559391,42.806162],[0.559276,42.80594],[0.559169,42.805782],[0.559051,42.805646],[0.558882,42.805519],[0.558711,42.805463],[0.558602,42.805448],[0.558356,42.805474],[0.5569,42.805901],[0.556715,42.805938],[0.556149,42.805998],[0.55574,42.806083],[0.55557,42.806102],[0.555378,42.806107],[0.554491,42.806074],[0.554146,42.806042],[0.553683,42.805973],[0.553217,42.805938],[0.552484,42.805949],[0.552017,42.805999],[0.550182,42.806274],[0.549917,42.80631],[0.54948,42.806314],[0.548655,42.806275],[0.548518,42.806283],[0.548376,42.806312],[0.547886,42.806485],[0.547731,42.80652],[0.547103,42.806571],[0.546687,42.806587],[0.546612,42.806586],[0.546337,42.806564],[0.545519,42.806452],[0.545466,42.806451],[0.54484,42.806455],[0.544622,42.806449],[0.544507,42.806475],[0.54436,42.806477],[0.544184,42.806452],[0.544021,42.806382],[0.5433,42.806228],[0.542886,42.806188],[0.541839,42.806175],[0.541347,42.806184],[0.541006,42.806198],[0.540183,42.806283],[0.538309,42.806545],[0.537768,42.806599],[0.537409,42.806611],[0.536972,42.806608],[0.536435,42.80659],[0.536098,42.8066],[0.535532,42.806674],[0.535205,42.806737],[0.534522,42.806863],[0.534217,42.806868],[0.533722,42.806821],[0.533437,42.806806],[0.533243,42.806812],[0.533059,42.806834],[0.532584,42.80695],[0.532545,42.806959],[0.530633,42.807352],[0.530561,42.80736],[0.530194,42.807363],[0.529985,42.807349],[0.529368,42.807267],[0.529138,42.807214],[0.528753,42.807076],[0.527623,42.806635],[0.527309,42.806541],[0.52675,42.806416],[0.526467,42.806376],[0.52598,42.806275],[0.525225,42.80612],[0.524745,42.80607],[0.524149,42.806074],[0.523767,42.806056],[0.52337,42.806046],[0.522204,42.805957],[0.522033,42.805958],[0.52189,42.805973],[0.521748,42.806007],[0.521548,42.806082],[0.520869,42.806342],[0.520121,42.806565],[0.51996,42.806648],[0.519834,42.806734],[0.519698,42.806875],[0.519559,42.807106],[0.519513,42.807354],[0.519502,42.808031],[0.519453,42.808214],[0.519397,42.808299],[0.519318,42.808376],[0.519152,42.808491],[0.518956,42.808611],[0.518741,42.808707],[0.5184,42.80876],[0.517648,42.808837],[0.517527,42.808837],[0.515394,42.808667],[0.515183,42.808638],[0.515083,42.808572],[0.51505,42.808522],[0.514981,42.808339],[0.514881,42.808229],[0.514749,42.808138],[0.514609,42.808092],[0.514316,42.808038],[0.51409,42.808035],[0.513799,42.808055],[0.512566,42.808199],[0.512302,42.808222],[0.512108,42.808223],[0.511959,42.808203],[0.511626,42.808122],[0.510809,42.808025],[0.510548,42.807972],[0.509638,42.807727],[0.509607,42.807719],[0.508115,42.807318],[0.507327,42.807155],[0.505779,42.806946],[0.505209,42.806864],[0.505022,42.80679],[0.504917,42.806702],[0.504884,42.806658],[0.504865,42.806621],[0.504829,42.806442],[0.504832,42.806264],[0.504782,42.805972],[0.5047,42.805801],[0.50461,42.805678],[0.504474,42.805542],[0.504277,42.805407],[0.503396,42.804922],[0.503174,42.804783],[0.503001,42.804635],[0.502742,42.804202],[0.501578,42.802983],[0.501529,42.802885],[0.501408,42.802499],[0.501369,42.802422],[0.501313,42.802363],[0.500809,42.801964],[0.500627,42.801767],[0.500504,42.801593],[0.500169,42.801271],[0.499804,42.800917],[0.499702,42.800859],[0.499376,42.800747],[0.499229,42.800673],[0.498159,42.799756],[0.49795,42.799567],[0.49752,42.798998],[0.497368,42.798827],[0.497188,42.798711],[0.495871,42.798228],[0.495382,42.797993],[0.494989,42.797743],[0.49462,42.797485],[0.494095,42.796979],[0.493617,42.796586],[0.49259,42.796002],[0.491525,42.79541],[0.491065,42.795181],[0.490226,42.794837],[0.490075,42.79481],[0.489851,42.794804],[0.489621,42.794782],[0.489497,42.794767],[0.489277,42.794705],[0.489118,42.794643],[0.488975,42.794541],[0.488585,42.794136],[0.488423,42.794009],[0.48797,42.793791],[0.4875,42.793527],[0.487285,42.793438],[0.487042,42.793287],[0.486771,42.793066],[0.486623,42.79292],[0.486572,42.792846],[0.486521,42.792712],[0.486513,42.792419],[0.48639,42.792142],[0.485958,42.791581],[0.485917,42.791521],[0.48585,42.79135],[0.48579,42.790564],[0.485765,42.790481],[0.485677,42.790182],[0.485513,42.789844],[0.485336,42.789383],[0.485309,42.789319],[0.484969,42.788862],[0.484528,42.788146],[0.484302,42.787618],[0.484221,42.7873],[0.484205,42.787139],[0.484143,42.786972],[0.484082,42.786897],[0.483987,42.786873],[0.483855,42.786888],[0.483798,42.786912],[0.483749,42.786962],[0.483735,42.787017],[0.483781,42.787323],[0.483891,42.787808],[0.484057,42.788918],[0.484138,42.78996],[0.484092,42.790285],[0.483771,42.791031],[0.483666,42.791179],[0.483532,42.791304],[0.483361,42.791398],[0.482884,42.791509],[0.482719,42.791578],[0.482266,42.792067],[0.482003,42.792413],[0.481917,42.792565],[0.481891,42.792737],[0.481908,42.792844],[0.481976,42.792945],[0.482337,42.793271],[0.482374,42.793347],[0.482358,42.793415],[0.482302,42.79345],[0.482234,42.793465],[0.482132,42.793442],[0.481723,42.793067],[0.481178,42.792612],[0.481105,42.792502],[0.480941,42.792042],[0.480877,42.791992],[0.480803,42.791965],[0.48071,42.791963],[0.480634,42.792012],[0.48058,42.792087],[0.480579,42.792596],[0.480692,42.792974],[0.480807,42.793224],[0.480888,42.793322],[0.480991,42.793409],[0.481194,42.79353],[0.481225,42.793566],[0.481234,42.793637],[0.481209,42.793673],[0.481136,42.793707],[0.481019,42.793694],[0.480335,42.793368],[0.4799,42.79315],[0.479671,42.792983],[0.479087,42.792349],[0.47845,42.791797],[0.478132,42.791452],[0.478059,42.79132],[0.478045,42.791238],[0.478058,42.791133],[0.478113,42.79101],[0.478212,42.790908],[0.479101,42.79026],[0.479428,42.79007],[0.480509,42.789552],[0.481034,42.789321],[0.481172,42.789202],[0.481232,42.789042],[0.481231,42.788958],[0.481215,42.788848],[0.481163,42.78872],[0.481058,42.788531],[0.480983,42.788434],[0.480915,42.788375],[0.480828,42.788328],[0.480753,42.788311],[0.480615,42.78829],[0.480113,42.788321],[0.479825,42.788286],[0.479516,42.788206],[0.478904,42.788122],[0.478617,42.788051],[0.478489,42.787932],[0.47844,42.787787],[0.478481,42.78764],[0.478553,42.787498],[0.478602,42.787252],[0.478524,42.786663],[0.478523,42.786217],[0.478486,42.78612],[0.478436,42.78608],[0.478364,42.786063],[0.478285,42.786065],[0.478203,42.786107],[0.478177,42.786143],[0.478196,42.786617],[0.478147,42.786941],[0.478107,42.787064],[0.478009,42.787255],[0.477865,42.787433],[0.477736,42.787501],[0.477471,42.78746],[0.477055,42.787693],[0.47694,42.787741],[0.476954,42.787718]],"type":"LineString"}}],"metadata":{"attribution":"openrouteservice.org | OpenStreetMap contributors","service":"routing","timestamp":1763134158817,"query":{"coordinates":[[0.5964,42.7972],[0.4769,42.7877]],"profile":"driving-car","profileName":"driving-car","format":"geojson"},"engine":{"version":"9.5.0","build_date":"2025-10-31T12:33:09Z","graph_date":"2025-11-09T11:14:34Z","osm_date":"2025-11-03T01:00:00Z"}}}